,Zip Code,Zip Code Type,Zip Code Name,County
0,66002,Non-Unique,Atchison,Atchison
1,66006,Non-Unique,Baldwin City,Douglas
2,66007,Non-Unique,Basehor,Leavenworth
3,66008,Non-Unique,Bendena,Doniphan
4,66010,Non-Unique,Blue Mound,Linn
5,66012,Non-Unique,Bonner Springs,Leavenworth
6,66013,Non-Unique,Bucyrus,Miami
7,66014,Non-Unique,Centerville,Linn
8,66015,Non-Unique,Colony,Anderson
9,66016,Non-Unique,Cummings,Atchison
10,66017,Non-Unique,Denton,Doniphan
11,66018,Non-Unique,De Soto,Johnson
12,66019,PO Box,Clearview City,Johnson
13,66020,Non-Unique,Easton,Leavenworth
14,66021,Non-Unique,Edgerton,Johnson
15,66023,Non-Unique,Effingham,Atchison
16,66024,PO Box,Elwood,Doniphan
17,66025,Non-Unique,Eudora,Douglas
18,66026,Non-Unique,Fontana,Miami
19,66027,Non-Unique,Fort Leavenworth,Leavenworth
20,66030,Non-Unique,Gardner,Johnson
21,66031,Non-Unique,New Century,Johnson
22,66032,Non-Unique,Garnett,Anderson
23,66033,Non-Unique,Greeley,Anderson
24,66035,Non-Unique,Highland,Doniphan
25,66036,PO Box,Hillsdale,Miami
26,66039,Non-Unique,Kincaid,Anderson
27,66040,Non-Unique,La Cygne,Linn
28,66041,Non-Unique,Lancaster,Atchison
29,66042,Non-Unique,Lane,Franklin
30,66043,Non-Unique,Lansing,Leavenworth
31,66044,Non-Unique,Lawrence,Douglas
32,66045,Non-Unique,Lawrence,Douglas
33,66046,Non-Unique,Lawrence,Douglas
34,66047,Non-Unique,Lawrence,Douglas
35,66048,Non-Unique,Leavenworth,Leavenworth
36,66049,Non-Unique,Lawrence,Douglas
37,66050,Non-Unique,Lecompton,Douglas
38,66051,PO Box,Olathe,Johnson
39,66052,Non-Unique,Linwood,Leavenworth
40,66053,Non-Unique,Louisburg,Miami
41,66054,Non-Unique,McLouth,Jefferson
42,66056,Non-Unique,Mound City,Linn
43,66058,Non-Unique,Muscotah,Atchison
44,66060,Non-Unique,Nortonville,Jefferson
45,66061,Non-Unique,Olathe,Johnson
46,66062,Non-Unique,Olathe,Johnson
47,66063,PO Box,Olathe,Johnson
48,66064,Non-Unique,Osawatomie,Miami
49,66066,Non-Unique,Oskaloosa,Jefferson
50,66067,Non-Unique,Ottawa,Franklin
51,66070,Non-Unique,Ozawkie,Jefferson
52,66071,Non-Unique,Paola,Miami
53,66072,Non-Unique,Parker,Linn
54,66073,Non-Unique,Perry,Jefferson
55,66075,Non-Unique,Pleasanton,Linn
56,66076,Non-Unique,Pomona,Franklin
57,66078,Non-Unique,Princeton,Franklin
58,66079,Non-Unique,Rantoul,Franklin
59,66080,Non-Unique,Richmond,Franklin
60,66083,Non-Unique,Spring Hill,Miami
61,66085,Non-Unique,Stilwell,Johnson
62,66086,Non-Unique,Tonganoxie,Leavenworth
63,66087,Non-Unique,Troy,Doniphan
64,66088,Non-Unique,Valley Falls,Jefferson
65,66090,Non-Unique,Wathena,Doniphan
66,66091,Non-Unique,Welda,Anderson
67,66092,Non-Unique,Wellsville,Franklin
68,66093,Non-Unique,Westphalia,Anderson
69,66094,Non-Unique,White Cloud,Doniphan
70,66095,Non-Unique,Williamsburg,Franklin
71,66097,Non-Unique,Winchester,Jefferson
72,66101,Non-Unique,Kansas City,Wyandotte
73,66102,Non-Unique,Kansas City,Wyandotte
74,66103,Non-Unique,Kansas City,Wyandotte
75,66104,Non-Unique,Kansas City,Wyandotte
76,66105,Non-Unique,Kansas City,Wyandotte
77,66106,Non-Unique,Kansas City,Wyandotte
78,66109,Non-Unique,Kansas City,Wyandotte
79,66110,PO Box,Kansas City,Wyandotte
80,66111,Non-Unique,Kansas City,Wyandotte
81,66112,Non-Unique,Kansas City,Wyandotte
82,66113,Non-Unique,Edwardsville,Wyandotte
83,66115,Non-Unique,Kansas City,Wyandotte
84,66117,PO Box,Kansas City,Wyandotte
85,66118,Non-Unique,Kansas City,Wyandotte
86,66119,PO Box,Kansas City,Wyandotte
87,66160,Non-Unique,Kansas City,Wyandotte
88,66201,PO Box,Mission,Johnson
89,66202,Non-Unique,Mission,Johnson
90,66203,Non-Unique,Shawnee,Johnson
91,66204,Non-Unique,Overland Park,Johnson
92,66205,Non-Unique,Mission,Johnson
93,66206,Non-Unique,Leawood,Johnson
94,66207,Non-Unique,Overland Park,Johnson
95,66208,Non-Unique,Prairie Village,Johnson
96,66209,Non-Unique,Leawood,Johnson
97,66210,Non-Unique,Overland Park,Johnson
98,66211,Non-Unique,Leawood,Johnson
99,66212,Non-Unique,Overland Park,Johnson
100,66213,Non-Unique,Overland Park,Johnson
101,66214,Non-Unique,Overland Park,Johnson
102,66215,Non-Unique,Lenexa,Johnson
103,66216,Non-Unique,Shawnee,Johnson
104,66217,Non-Unique,Shawnee,Johnson
105,66218,Non-Unique,Shawnee,Johnson
106,66219,Non-Unique,Lenexa,Johnson
107,66220,Non-Unique,Lenexa,Johnson
108,66221,Non-Unique,Overland Park,Johnson
109,66222,PO Box,Mission,Johnson
110,66223,Non-Unique,Overland Park,Johnson
111,66224,Non-Unique,Overland Park,Johnson
112,66225,PO Box,Overland Park,Johnson
113,66226,Non-Unique,Shawnee,Johnson
114,66227,Non-Unique,Lenexa,Johnson
115,66250,Unique,Shawnee Mission,Johnson
116,66251,Unique,Overland Park,Johnson
117,66276,Unique,Shawnee Mission,Johnson
118,66282,PO Box,Overland Park,Johnson
119,66283,PO Box,Overland Park,Johnson
120,66285,PO Box,Lenexa,Johnson
121,66286,PO Box,Shawnee,Johnson
122,66401,Non-Unique,Alma,Wabaunsee
123,66402,Non-Unique,Auburn,Shawnee
124,66403,Non-Unique,Axtell,Marshall
125,66404,Non-Unique,Baileyville,Nemaha
126,66406,Non-Unique,Beattie,Marshall
127,66407,Non-Unique,Belvue,Pottawatomie
128,66408,Non-Unique,Bern,Nemaha
129,66409,Non-Unique,Berryton,Shawnee
130,66411,Non-Unique,Blue Rapids,Marshall
131,66412,Non-Unique,Bremen,Marshall
132,66413,Non-Unique,Burlingame,Osage
133,66414,Non-Unique,Carbondale,Osage
134,66415,Non-Unique,Centralia,Nemaha
135,66416,Non-Unique,Circleville,Jackson
136,66417,Non-Unique,Corning,Nemaha
137,66418,Non-Unique,Delia,Jackson
138,66419,Non-Unique,Denison,Jackson
139,66420,PO Box,Dover,Shawnee
140,66422,Non-Unique,Emmett,Pottawatomie
141,66423,Non-Unique,Eskridge,Wabaunsee
142,66424,Non-Unique,Everest,Brown
143,66425,Non-Unique,Fairview,Brown
144,66426,PO Box,Fostoria,Pottawatomie
145,66427,Non-Unique,Frankfort,Marshall
146,66428,Non-Unique,Goff,Nemaha
147,66429,Non-Unique,Grantville,Jefferson
148,66431,Non-Unique,Harveyville,Wabaunsee
149,66432,Non-Unique,Havensville,Pottawatomie
150,66434,Non-Unique,Hiawatha,Brown
151,66436,Non-Unique,Holton,Jackson
152,66438,Non-Unique,Home,Marshall
153,66439,Non-Unique,Horton,Brown
154,66440,Non-Unique,Hoyt,Jackson
155,66441,Non-Unique,Junction City,Geary
156,66442,Non-Unique,Fort Riley,Geary
157,66449,Non-Unique,Leonardville,Riley
158,66451,Non-Unique,Lyndon,Osage
159,66501,PO Box,McFarland,Wabaunsee
160,66502,Non-Unique,Manhattan,Riley
161,66503,Non-Unique,Manhattan,Riley
162,66505,PO Box,Manhattan,Riley
163,66506,Non-Unique,Manhattan,Riley
164,66507,Non-Unique,Maple Hill,Wabaunsee
165,66508,Non-Unique,Marysville,Marshall
166,66509,Non-Unique,Mayetta,Jackson
167,66510,Non-Unique,Melvern,Osage
168,66512,Non-Unique,Meriden,Jefferson
169,66514,Non-Unique,Milford,Geary
170,66515,Non-Unique,Morrill,Brown
171,66516,Non-Unique,Netawaka,Jackson
172,66517,Non-Unique,Ogden,Riley
173,66518,Non-Unique,Oketo,Marshall
174,66520,Non-Unique,Olsburg,Pottawatomie
175,66521,Non-Unique,Onaga,Pottawatomie
176,66522,Non-Unique,Oneida,Nemaha
177,66523,Non-Unique,Osage City,Osage
178,66524,Non-Unique,Overbrook,Douglas
179,66526,Non-Unique,Paxico,Wabaunsee
180,66527,Non-Unique,Powhattan,Brown
181,66528,Non-Unique,Quenemo,Osage
182,66531,Non-Unique,Riley,Riley
183,66532,Non-Unique,Robinson,Brown
184,66533,Non-Unique,Rossville,Shawnee
185,66534,Non-Unique,Sabetha,Nemaha
186,66535,Non-Unique,Saint George,Pottawatomie
187,66536,Non-Unique,Saint Marys,Pottawatomie
188,66537,Non-Unique,Scranton,Osage
189,66538,Non-Unique,Seneca,Nemaha
190,66539,Non-Unique,Silver Lake,Shawnee
191,66540,Non-Unique,Soldier,Jackson
192,66541,Non-Unique,Summerfield,Marshall
193,66542,Non-Unique,Tecumseh,Shawnee
194,66543,Non-Unique,Vassar,Osage
195,66544,Non-Unique,Vermillion,Marshall
196,66546,Non-Unique,Wakarusa,Shawnee
197,66547,Non-Unique,Wamego,Pottawatomie
198,66548,Non-Unique,Waterville,Marshall
199,66549,Non-Unique,Westmoreland,Pottawatomie
200,66550,Non-Unique,Wetmore,Nemaha
201,66552,Non-Unique,Whiting,Jackson
202,66554,Non-Unique,Randolph,Riley
203,66601,PO Box,Topeka,Shawnee
204,66603,Non-Unique,Topeka,Shawnee
205,66604,Non-Unique,Topeka,Shawnee
206,66605,Non-Unique,Topeka,Shawnee
207,66606,Non-Unique,Topeka,Shawnee
208,66607,Non-Unique,Topeka,Shawnee
209,66608,Non-Unique,Topeka,Shawnee
210,66609,Non-Unique,Topeka,Shawnee
211,66610,Non-Unique,Topeka,Shawnee
212,66611,Non-Unique,Topeka,Shawnee
213,66612,Non-Unique,Topeka,Shawnee
214,66614,Non-Unique,Topeka,Shawnee
215,66615,Non-Unique,Topeka,Shawnee
216,66616,Non-Unique,Topeka,Shawnee
217,66617,Non-Unique,Topeka,Shawnee
218,66618,Non-Unique,Topeka,Shawnee
219,66619,Non-Unique,Topeka,Shawnee
220,66620,Unique,Topeka,Shawnee
221,66621,Non-Unique,Topeka,Shawnee
222,66622,Unique,Topeka,Shawnee
223,66624,Unique,Topeka,Shawnee
224,66625,Unique,Topeka,Shawnee
225,66626,Unique,Topeka,Shawnee
226,66629,Unique,Topeka,Shawnee
227,66636,Unique,Topeka,Shawnee
228,66647,PO Box,Topeka,Shawnee
229,66667,PO Box,Topeka,Shawnee
230,66675,PO Box,Topeka,Shawnee
231,66683,Non-Unique,Topeka,Shawnee
232,66699,Unique,Topeka,Shawnee
233,66701,Non-Unique,Fort Scott,Bourbon
234,66710,Non-Unique,Altoona,Wilson
235,66711,Non-Unique,Arcadia,Crawford
236,66712,Non-Unique,Arma,Crawford
237,66713,Non-Unique,Baxter Springs,Cherokee
238,66714,Non-Unique,Benedict,Wilson
239,66716,Non-Unique,Bronson,Bourbon
240,66717,Non-Unique,Buffalo,Wilson
241,66720,Non-Unique,Chanute,Neosho
242,66724,Non-Unique,Cherokee,Crawford
243,66725,Non-Unique,Columbus,Cherokee
244,66728,Non-Unique,Crestline,Cherokee
245,66732,Non-Unique,Elsmore,Allen
246,66733,Non-Unique,Erie,Neosho
247,66734,Non-Unique,Farlington,Crawford
248,66735,Non-Unique,Franklin,Crawford
249,66736,Non-Unique,Fredonia,Wilson
250,66738,Non-Unique,Fulton,Bourbon
251,66739,Non-Unique,Galena,Cherokee
252,66740,Non-Unique,Galesburg,Neosho
253,66741,Non-Unique,Garland,Bourbon
254,66742,PO Box,Gas,Allen
255,66743,Non-Unique,Girard,Crawford
256,66746,Non-Unique,Hepler,Crawford
257,66748,Non-Unique,Humboldt,Allen
258,66749,Non-Unique,Iola,Allen
259,66751,Non-Unique,La Harpe,Allen
260,66753,Non-Unique,McCune,Crawford
261,66754,Non-Unique,Mapleton,Bourbon
262,66755,Non-Unique,Moran,Allen
263,66756,Non-Unique,Mulberry,Crawford
264,66757,Non-Unique,Neodesha,Wilson
265,66758,Non-Unique,Neosho Falls,Woodson
266,66759,Non-Unique,New Albany,Wilson
267,66760,PO Box,Opolis,Crawford
268,66761,Non-Unique,Piqua,Woodson
269,66762,Non-Unique,Pittsburg,Crawford
270,66763,Non-Unique,Frontenac,Crawford
271,66767,Non-Unique,Prescott,Linn
272,66769,Non-Unique,Redfield,Bourbon
273,66770,Non-Unique,Riverton,Cherokee
274,66771,Non-Unique,Saint Paul,Neosho
275,66772,Non-Unique,Savonburg,Allen
276,66773,Non-Unique,Scammon,Cherokee
277,66775,Non-Unique,Stark,Neosho
278,66776,Non-Unique,Thayer,Neosho
279,66777,Non-Unique,Toronto,Woodson
280,66778,Non-Unique,Treece,Cherokee
281,66779,Non-Unique,Uniontown,Bourbon
282,66780,Non-Unique,Walnut,Crawford
283,66781,Non-Unique,Weir,Cherokee
284,66782,PO Box,West Mineral,Cherokee
285,66783,Non-Unique,Yates Center,Woodson
286,66801,Non-Unique,Emporia,Lyon
287,66830,Non-Unique,Admire,Lyon
288,66833,Non-Unique,Allen,Lyon
289,66834,Non-Unique,Alta Vista,Wabaunsee
290,66835,Non-Unique,Americus,Lyon
291,66838,Non-Unique,Burdick,Morris
292,66839,Non-Unique,Burlington,Coffey
293,66840,Non-Unique,Burns,Chase
294,66842,Non-Unique,Cassoday,Butler
295,66843,Non-Unique,Cedar Point,Chase
296,66845,Non-Unique,Cottonwood Falls,Chase
297,66846,Non-Unique,Council Grove,Morris
298,66849,Non-Unique,Dwight,Morris
299,66850,Non-Unique,Elmdale,Chase
300,66851,Non-Unique,Florence,Marion
301,66852,Non-Unique,Gridley,Coffey
302,66853,Non-Unique,Hamilton,Greenwood
303,66854,Non-Unique,Hartford,Lyon
304,66855,Non-Unique,Lamont,Greenwood
305,66856,Non-Unique,Lebo,Coffey
306,66857,Non-Unique,Le Roy,Coffey
307,66858,Non-Unique,Lincolnville,Marion
308,66859,Non-Unique,Lost Springs,Marion
309,66860,Non-Unique,Madison,Greenwood
310,66861,Non-Unique,Marion,Marion
311,66862,Non-Unique,Matfield Green,Chase
312,66863,PO Box,Neal,Greenwood
313,66864,Non-Unique,Neosho Rapids,Lyon
314,66865,Non-Unique,Olpe,Lyon
315,66866,Non-Unique,Peabody,Marion
316,66868,Non-Unique,Reading,Lyon
317,66869,Non-Unique,Strong City,Chase
318,66870,Non-Unique,Virgil,Greenwood
319,66871,Non-Unique,Waverly,Coffey
320,66872,Non-Unique,White City,Morris
321,66873,Non-Unique,Wilsey,Morris
322,66901,Non-Unique,Concordia,Cloud
323,66930,Non-Unique,Agenda,Republic
324,66932,Non-Unique,Athol,Smith
325,66933,Non-Unique,Barnes,Washington
326,66935,Non-Unique,Belleville,Republic
327,66936,Non-Unique,Burr Oak,Jewell
328,66937,Non-Unique,Clifton,Washington
329,66938,Non-Unique,Clyde,Cloud
330,66939,Non-Unique,Courtland,Republic
331,66940,Non-Unique,Cuba,Republic
332,66941,Non-Unique,Esbon,Jewell
333,66942,Non-Unique,Formoso,Jewell
334,66943,Non-Unique,Greenleaf,Washington
335,66944,Non-Unique,Haddam,Washington
336,66945,Non-Unique,Hanover,Washington
337,66946,Non-Unique,Hollenberg,Washington
338,66948,Non-Unique,Jamestown,Cloud
339,66949,Non-Unique,Jewell,Jewell
340,66951,Non-Unique,Kensington,Smith
341,66952,Non-Unique,Lebanon,Smith
342,66953,Non-Unique,Linn,Washington
343,66955,Non-Unique,Mahaska,Washington
344,66956,Non-Unique,Mankato,Jewell
345,66958,Non-Unique,Morrowville,Washington
346,66959,Non-Unique,Munden,Republic
347,66960,Non-Unique,Narka,Republic
348,66961,Non-Unique,Norway,Republic
349,66962,Non-Unique,Palmer,Washington
350,66963,Non-Unique,Randall,Jewell
351,66964,Non-Unique,Republic,Republic
352,66966,Non-Unique,Scandia,Republic
353,66967,Non-Unique,Smith Center,Smith
354,66968,Non-Unique,Washington,Washington
355,66970,Non-Unique,Webber,Jewell
356,67001,Non-Unique,Andale,Sedgwick
357,67002,Non-Unique,Andover,Butler
358,67003,Non-Unique,Anthony,Harper
359,67004,Non-Unique,Argonia,Sumner
360,67005,Non-Unique,Arkansas City,Cowley
361,67008,Non-Unique,Atlanta,Cowley
362,67009,Non-Unique,Attica,Harper
363,67010,Non-Unique,Augusta,Butler
364,67012,PO Box,Beaumont,Butler
365,67013,Non-Unique,Belle Plaine,Sumner
366,67016,Non-Unique,Bentley,Sedgwick
367,67017,Non-Unique,Benton,Butler
368,67018,Non-Unique,Bluff City,Harper
369,67019,Non-Unique,Burden,Cowley
370,67020,Non-Unique,Burrton,Harvey
371,67021,Non-Unique,Byers,Pratt
372,67022,Non-Unique,Caldwell,Sumner
373,67023,Non-Unique,Cambridge,Cowley
374,67024,Non-Unique,Cedar Vale,Chautauqua
375,67025,Non-Unique,Cheney,Sedgwick
376,67026,Non-Unique,Clearwater,Sedgwick
377,67028,Non-Unique,Coats,Pratt
378,67029,Non-Unique,Coldwater,Comanche
379,67030,Non-Unique,Colwich,Sedgwick
380,67031,Non-Unique,Conway Springs,Sumner
381,67035,Non-Unique,Cunningham,Kingman
382,67036,Non-Unique,Danville,Harper
383,67037,Non-Unique,Derby,Sedgwick
384,67038,Non-Unique,Dexter,Cowley
385,67039,Non-Unique,Douglass,Butler
386,67041,PO Box,Elbing,Butler
387,67042,Non-Unique,El Dorado,Butler
388,67045,Non-Unique,Eureka,Greenwood
389,67047,Non-Unique,Fall River,Greenwood
390,67049,Non-Unique,Freeport,Harper
391,67050,Non-Unique,Garden Plain,Sedgwick
392,67051,Non-Unique,Geuda Springs,Sumner
393,67052,Non-Unique,Goddard,Sedgwick
394,67053,Non-Unique,Goessel,Marion
395,67054,Non-Unique,Greensburg,Kiowa
396,67055,Non-Unique,Greenwich,Sedgwick
397,67056,Non-Unique,Halstead,Harvey
398,67057,Non-Unique,Hardtner,Barber
399,67058,Non-Unique,Harper,Harper
400,67059,Non-Unique,Haviland,Kiowa
401,67060,Non-Unique,Haysville,Sedgwick
402,67061,Non-Unique,Hazelton,Barber
403,67062,Non-Unique,Hesston,Harvey
404,67063,Non-Unique,Hillsboro,Marion
405,67065,Non-Unique,Isabel,Pratt
406,67066,Non-Unique,Iuka,Pratt
407,67067,Non-Unique,Kechi,Sedgwick
408,67068,Non-Unique,Kingman,Kingman
409,67070,Non-Unique,Kiowa,Barber
410,67071,Non-Unique,Lake City,Barber
411,67072,Non-Unique,Latham,Butler
412,67073,Non-Unique,Lehigh,Marion
413,67074,Non-Unique,Leon,Butler
414,67101,Non-Unique,Maize,Sedgwick
415,67102,Non-Unique,Maple City,Cowley
416,67103,Non-Unique,Mayfield,Sumner
417,67104,Non-Unique,Medicine Lodge,Barber
418,67105,Non-Unique,Milan,Sumner
419,67106,Non-Unique,Milton,Sumner
420,67107,Non-Unique,Moundridge,McPherson
421,67108,Non-Unique,Mount Hope,Sedgwick
422,67109,Non-Unique,Mullinville,Kiowa
423,67110,Non-Unique,Mulvane,Sumner
424,67111,Non-Unique,Murdock,Kingman
425,67112,Non-Unique,Nashville,Kingman
426,67114,Non-Unique,Newton,Harvey
427,67117,Non-Unique,North Newton,Harvey
428,67118,Non-Unique,Norwich,Kingman
429,67119,Non-Unique,Oxford,Sumner
430,67120,Non-Unique,Peck,Sumner
431,67122,Non-Unique,Piedmont,Greenwood
432,67123,Non-Unique,Potwin,Butler
433,67124,Non-Unique,Pratt,Pratt
434,67127,Non-Unique,Protection,Comanche
435,67131,Non-Unique,Rock,Cowley
436,67132,Non-Unique,Rosalia,Butler
437,67133,Non-Unique,Rose Hill,Butler
438,67134,Non-Unique,Sawyer,Pratt
439,67135,Non-Unique,Sedgwick,Harvey
440,67137,Non-Unique,Severy,Greenwood
441,67138,Non-Unique,Sharon,Barber
442,67140,Non-Unique,South Haven,Sumner
443,67142,Non-Unique,Spivey,Kingman
444,67143,Non-Unique,Sun City,Barber
445,67144,Non-Unique,Towanda,Butler
446,67146,Non-Unique,Udall,Cowley
447,67147,Non-Unique,Valley Center,Sedgwick
448,67149,Non-Unique,Viola,Sedgwick
449,67150,Non-Unique,Waldron,Harper
450,67151,Non-Unique,Walton,Harvey
451,67152,Non-Unique,Wellington,Sumner
452,67154,Non-Unique,Whitewater,Butler
453,67155,Non-Unique,Wilmore,Comanche
454,67156,Non-Unique,Winfield,Cowley
455,67159,Non-Unique,Zenda,Kingman
456,67201,PO Box,Wichita,Sedgwick
457,67202,Non-Unique,Wichita,Sedgwick
458,67203,Non-Unique,Wichita,Sedgwick
459,67204,Non-Unique,Wichita,Sedgwick
460,67205,Non-Unique,Wichita,Sedgwick
461,67206,Non-Unique,Wichita,Sedgwick
462,67207,Non-Unique,Wichita,Sedgwick
463,67208,Non-Unique,Wichita,Sedgwick
464,67209,Non-Unique,Wichita,Sedgwick
465,67210,Non-Unique,Wichita,Sedgwick
466,67211,Non-Unique,Wichita,Sedgwick
467,67212,Non-Unique,Wichita,Sedgwick
468,67213,Non-Unique,Wichita,Sedgwick
469,67214,Non-Unique,Wichita,Sedgwick
470,67215,Non-Unique,Wichita,Sedgwick
471,67216,Non-Unique,Wichita,Sedgwick
472,67217,Non-Unique,Wichita,Sedgwick
473,67218,Non-Unique,Wichita,Sedgwick
474,67219,Non-Unique,Wichita,Sedgwick
475,67220,Non-Unique,Wichita,Sedgwick
476,67221,Non-Unique,McConnell AFB,Sedgwick
477,67223,Non-Unique,Wichita,Sedgwick
478,67226,Non-Unique,Wichita,Sedgwick
479,67227,Non-Unique,Wichita,Sedgwick
480,67228,Non-Unique,Wichita,Sedgwick
481,67230,Non-Unique,Wichita,Sedgwick
482,67232,Non-Unique,Wichita,Sedgwick
483,67235,Non-Unique,Wichita,Sedgwick
484,67260,Non-Unique,Wichita,Sedgwick
485,67275,PO Box,Wichita,Sedgwick
486,67276,Non-Unique,Wichita,Sedgwick
487,67277,PO Box,Wichita,Sedgwick
488,67278,PO Box,Wichita,Sedgwick
489,67301,Non-Unique,Independence,Montgomery
490,67330,Non-Unique,Altamont,Labette
491,67332,Non-Unique,Bartlett,Labette
492,67333,Non-Unique,Caney,Montgomery
493,67334,PO Box,Chautauqua,Chautauqua
494,67335,Non-Unique,Cherryvale,Montgomery
495,67336,Non-Unique,Chetopa,Cherokee
496,67337,Non-Unique,Coffeyville,Montgomery
497,67340,PO Box,Dearing,Montgomery
498,67341,Non-Unique,Dennis,Labette
499,67342,Non-Unique,Edna,Labette
500,67344,Non-Unique,Elk City,Montgomery
501,67345,Non-Unique,Elk Falls,Elk
502,67346,Non-Unique,Grenola,Elk
503,67347,Non-Unique,Havana,Montgomery
504,67349,Non-Unique,Howard,Elk
505,67351,Non-Unique,Liberty,Montgomery
506,67352,Non-Unique,Longton,Elk
507,67353,Non-Unique,Moline,Elk
508,67354,Non-Unique,Mound Valley,Labette
509,67355,Non-Unique,Niotaze,Chautauqua
510,67356,Non-Unique,Oswego,Labette
511,67357,Non-Unique,Parsons,Labette
512,67360,Non-Unique,Peru,Chautauqua
513,67361,Non-Unique,Sedan,Chautauqua
514,67363,PO Box,Sycamore,Montgomery
515,67364,PO Box,Tyro,Montgomery
516,67401,Non-Unique,Salina,Saline
517,67402,PO Box,Salina,Saline
518,67410,Non-Unique,Abilene,Dickinson
519,67416,Non-Unique,Assaria,Saline
520,67417,Non-Unique,Aurora,Cloud
521,67418,Non-Unique,Barnard,Lincoln
522,67420,Non-Unique,Beloit,Mitchell
523,67422,Non-Unique,Bennington,Ottawa
524,67423,Non-Unique,Beverly,Lincoln
525,67425,Non-Unique,Brookville,Saline
526,67427,Non-Unique,Bushton,Rice
527,67428,Non-Unique,Canton,McPherson
528,67430,Non-Unique,Cawker City,Mitchell
529,67431,Non-Unique,Chapman,Dickinson
530,67432,Non-Unique,Clay Center,Clay
531,67436,Non-Unique,Delphos,Ottawa
532,67437,Non-Unique,Downs,Osborne
533,67438,Non-Unique,Durham,Marion
534,67439,Non-Unique,Ellsworth,Ellsworth
535,67441,Non-Unique,Enterprise,Dickinson
536,67442,Non-Unique,Falun,Saline
537,67443,Non-Unique,Galva,McPherson
538,67444,Non-Unique,Geneseo,Rice
539,67445,Non-Unique,Glasco,Cloud
540,67446,Non-Unique,Glen Elder,Mitchell
541,67447,Non-Unique,Green,Clay
542,67448,Non-Unique,Gypsum,Saline
543,67449,Non-Unique,Herington,Morris
544,67450,Non-Unique,Holyrood,Ellsworth
545,67451,Non-Unique,Hope,Dickinson
546,67452,Non-Unique,Hunter,Mitchell
547,67454,Non-Unique,Kanopolis,Ellsworth
548,67455,Non-Unique,Lincoln,Lincoln
549,67456,Non-Unique,Lindsborg,McPherson
550,67457,Non-Unique,Little River,Rice
551,67458,Non-Unique,Longford,Clay
552,67459,Non-Unique,Lorraine,Ellsworth
553,67460,Non-Unique,Mcpherson,McPherson
554,67464,Non-Unique,Marquette,McPherson
555,67466,Non-Unique,Miltonvale,Cloud
556,67467,Non-Unique,Minneapolis,Ottawa
557,67468,Non-Unique,Morganville,Clay
558,67470,Non-Unique,New Cambria,Saline
559,67473,Non-Unique,Osborne,Osborne
560,67474,Non-Unique,Portis,Osborne
561,67475,Non-Unique,Ramona,Marion
562,67476,Non-Unique,Roxbury,McPherson
563,67478,Non-Unique,Simpson,Mitchell
564,67480,Non-Unique,Solomon,Ottawa
565,67481,Non-Unique,Sylvan Grove,Lincoln
566,67482,Non-Unique,Talmage,Dickinson
567,67483,Non-Unique,Tampa,Marion
568,67484,Non-Unique,Tescott,Ottawa
569,67485,Non-Unique,Tipton,Mitchell
570,67487,Non-Unique,Wakefield,Clay
571,67490,Non-Unique,Wilson,Ellsworth
572,67491,Non-Unique,Windom,McPherson
573,67492,Non-Unique,Woodbine,Dickinson
574,67501,Non-Unique,Hutchinson,Reno
575,67502,Non-Unique,Hutchinson,Reno
576,67504,PO Box,Hutchinson,Reno
577,67505,Non-Unique,South Hutchinson,Reno
578,67510,Non-Unique,Abbyville,Reno
579,67511,Non-Unique,Albert,Barton
580,67512,Non-Unique,Alden,Rice
581,67513,Non-Unique,Alexander,Rush
582,67514,Non-Unique,Arlington,Reno
583,67515,Non-Unique,Arnold,Ness
584,67516,Non-Unique,Bazine,Ness
585,67518,Non-Unique,Beeler,Ness
586,67519,Non-Unique,Belpre,Edwards
587,67520,Non-Unique,Bison,Rush
588,67521,Non-Unique,Brownell,Ness
589,67522,Non-Unique,Buhler,Reno
590,67523,Non-Unique,Burdett,Pawnee
591,67524,Non-Unique,Chase,Rice
592,67525,Non-Unique,Claflin,Barton
593,67526,Non-Unique,Ellinwood,Barton
594,67529,Non-Unique,Garfield,Pawnee
595,67530,Non-Unique,Great Bend,Barton
596,67543,Non-Unique,Haven,Reno
597,67544,Non-Unique,Hoisington,Barton
598,67545,Non-Unique,Hudson,Stafford
599,67546,Non-Unique,Inman,McPherson
600,67547,Non-Unique,Kinsley,Edwards
601,67548,Non-Unique,La Crosse,Rush
602,67550,Non-Unique,Larned,Pawnee
603,67552,Non-Unique,Lewis,Edwards
604,67553,Non-Unique,Liebenthal,Rush
605,67554,Non-Unique,Lyons,Rice
606,67556,Non-Unique,McCracken,Rush
607,67557,Non-Unique,Macksville,Stafford
608,67559,Non-Unique,Nekoma,Rush
609,67560,Non-Unique,Ness City,Ness
610,67561,Non-Unique,Nickerson,Reno
611,67563,Non-Unique,Offerle,Edwards
612,67564,Non-Unique,Olmitz,Barton
613,67565,Non-Unique,Otis,Rush
614,67566,Non-Unique,Partridge,Reno
615,67567,Non-Unique,Pawnee Rock,Barton
616,67568,Non-Unique,Plevna,Reno
617,67570,Non-Unique,Pretty Prairie,Reno
618,67572,Non-Unique,Ransom,Ness
619,67573,Non-Unique,Raymond,Rice
620,67574,Non-Unique,Rozel,Pawnee
621,67575,Non-Unique,Rush Center,Rush
622,67576,Non-Unique,Saint John,Stafford
623,67578,Non-Unique,Stafford,Stafford
624,67579,Non-Unique,Sterling,Rice
625,67581,Non-Unique,Sylvia,Reno
626,67583,Non-Unique,Turon,Reno
627,67584,Non-Unique,Utica,Ness
628,67585,PO Box,Yoder,Reno
629,67601,Non-Unique,Hays,Ellis
630,67621,Non-Unique,Agra,Phillips
631,67622,Non-Unique,Almena,Norton
632,67623,Non-Unique,Alton,Osborne
633,67625,Non-Unique,Bogue,Graham
634,67626,Non-Unique,Bunker Hill,Russell
635,67627,Non-Unique,Catharine,Ellis
636,67628,Non-Unique,Cedar,Smith
637,67629,Non-Unique,Clayton,Norton
638,67631,Non-Unique,Collyer,Trego
639,67632,Non-Unique,Damar,Rooks
640,67634,Non-Unique,Dorrance,Russell
641,67635,Non-Unique,Dresden,Decatur
642,67637,Non-Unique,Ellis,Ellis
643,67638,Non-Unique,Gaylord,Smith
644,67639,Non-Unique,Glade,Phillips
645,67640,Non-Unique,Gorham,Russell
646,67642,Non-Unique,Hill City,Graham
647,67643,Non-Unique,Jennings,Decatur
648,67644,Non-Unique,Kirwin,Phillips
649,67645,Non-Unique,Lenora,Norton
650,67646,Non-Unique,Logan,Phillips
651,67647,Non-Unique,Long Island,Phillips
652,67648,Non-Unique,Lucas,Russell
653,67649,Non-Unique,Luray,Russell
654,67650,Non-Unique,Morland,Graham
655,67651,Non-Unique,Natoma,Osborne
656,67653,Non-Unique,Norcatur,Decatur
657,67654,Non-Unique,Norton,Norton
658,67656,Non-Unique,Ogallah,Trego
659,67657,Non-Unique,Palco,Rooks
660,67658,Non-Unique,Paradise,Russell
661,67659,Non-Unique,Penokee,Graham
662,67660,Non-Unique,Pfeifer,Ellis
663,67661,Non-Unique,Phillipsburg,Phillips
664,67663,Non-Unique,Plainville,Rooks
665,67664,Non-Unique,Prairie View,Phillips
666,67665,Non-Unique,Russell,Russell
667,67667,PO Box,Schoenchen,Ellis
668,67669,Non-Unique,Stockton,Rooks
669,67671,Non-Unique,Victoria,Ellis
670,67672,Non-Unique,WaKeeney,Trego
671,67673,Non-Unique,Waldo,Russell
672,67674,PO Box,Walker,Ellis
673,67675,Non-Unique,Woodston,Rooks
674,67701,Non-Unique,Colby,Thomas
675,67730,Non-Unique,Atwood,Rawlins
676,67731,Non-Unique,Bird City,Cheyenne
677,67732,Non-Unique,Brewster,Thomas
678,67733,Non-Unique,Edson,Sherman
679,67734,Non-Unique,Gem,Thomas
680,67735,Non-Unique,Goodland,Sherman
681,67736,Non-Unique,Gove,Gove
682,67737,Non-Unique,Grainfield,Gove
683,67738,Non-Unique,Grinnell,Gove
684,67739,Non-Unique,Herndon,Rawlins
685,67740,Non-Unique,Hoxie,Sheridan
686,67741,Non-Unique,Kanorado,Sherman
687,67743,Non-Unique,Levant,Thomas
688,67744,Non-Unique,Ludell,Rawlins
689,67745,Non-Unique,McDonald,Rawlins
690,67747,Non-Unique,Monument,Logan
691,67748,Non-Unique,Oakley,Logan
692,67749,Non-Unique,Oberlin,Decatur
693,67751,Non-Unique,Park,Gove
694,67752,Non-Unique,Quinter,Gove
695,67753,Non-Unique,Rexford,Thomas
696,67756,Non-Unique,Saint Francis,Cheyenne
697,67757,Non-Unique,Selden,Sheridan
698,67758,Non-Unique,Sharon Springs,Wallace
699,67761,Non-Unique,Wallace,Wallace
700,67762,Non-Unique,Weskan,Wallace
701,67764,Non-Unique,Winona,Logan
702,67801,Non-Unique,Dodge City,Ford
703,67831,Non-Unique,Ashland,Clark
704,67834,Non-Unique,Bucklin,Ford
705,67835,Non-Unique,Cimarron,Finney
706,67836,PO Box,Coolidge,Hamilton
707,67837,Non-Unique,Copeland,Gray
708,67838,Non-Unique,Deerfield,Kearny
709,67839,Non-Unique,Dighton,Lane
710,67840,Non-Unique,Englewood,Clark
711,67841,Non-Unique,Ensign,Gray
712,67842,Non-Unique,Ford,Ford
713,67843,Non-Unique,Fort Dodge,Ford
714,67844,Non-Unique,Fowler,Meade
715,67846,Non-Unique,Garden City,Finney
716,67849,Non-Unique,Hanston,Hodgeman
717,67850,Non-Unique,Healy,Lane
718,67851,Non-Unique,Holcomb,Finney
719,67853,Non-Unique,Ingalls,Gray
720,67854,Non-Unique,Jetmore,Hodgeman
721,67855,Non-Unique,Johnson,Stanton
722,67857,Non-Unique,Kendall,Hamilton
723,67859,Non-Unique,Kismet,Seward
724,67860,Non-Unique,Lakin,Kearny
725,67861,Non-Unique,Leoti,Wichita
726,67862,Non-Unique,Manter,Stanton
727,67863,Non-Unique,Marienthal,Scott
728,67864,Non-Unique,Meade,Meade
729,67865,Non-Unique,Minneola,Clark
730,67867,Non-Unique,Montezuma,Gray
731,67868,Non-Unique,Pierceville,Finney
732,67869,Non-Unique,Plains,Meade
733,67870,Non-Unique,Satanta,Seward
734,67871,Non-Unique,Scott City,Scott
735,67876,Non-Unique,Spearville,Ford
736,67877,Non-Unique,Sublette,Haskell
737,67878,Non-Unique,Syracuse,Hamilton
738,67879,Non-Unique,Tribune,Greeley
739,67880,Non-Unique,Ulysses,Grant
740,67882,Non-Unique,Wright,Ford
741,67901,Non-Unique,Liberal,Seward
742,67905,PO Box,Liberal,Seward
743,67950,Non-Unique,Elkhart,Morton
744,67951,Non-Unique,Hugoton,Stevens
745,67952,Non-Unique,Moscow,Stevens
746,67953,Non-Unique,Richfield,Morton
747,67954,Non-Unique,Rolla,Morton
0,63005,Non-Unique,Chesterfield,Saint Louis
1,63006,PO Box,Chesterfield,Saint Louis
2,63010,Non-Unique,Arnold,Jefferson
3,63011,Non-Unique,Ballwin,Saint Louis
4,63012,Non-Unique,Barnhart,Jefferson
5,63013,Non-Unique,Beaufort,Franklin
6,63014,Non-Unique,Berger,Franklin
7,63015,Non-Unique,Catawissa,Franklin
8,63016,Non-Unique,Cedar Hill,Jefferson
9,63017,Non-Unique,Chesterfield,Saint Louis
10,63019,Non-Unique,Crystal City,Jefferson
11,63020,Non-Unique,De Soto,Jefferson
12,63021,Non-Unique,Ballwin,Saint Louis
13,63022,PO Box,Ballwin,Saint Louis
14,63023,Non-Unique,Dittmer,Jefferson
15,63024,PO Box,Ballwin,Saint Louis
16,63025,Non-Unique,Eureka,Saint Louis
17,63026,Non-Unique,Fenton,Saint Louis
18,63028,Non-Unique,Festus,Jefferson
19,63030,Non-Unique,Fletcher,Washington
20,63031,Non-Unique,Florissant,Saint Louis
21,63032,PO Box,Florissant,Saint Louis
22,63033,Non-Unique,Florissant,Saint Louis
23,63034,Non-Unique,Florissant,Saint Louis
24,63036,Non-Unique,French Village,Saint Francois
25,63037,Non-Unique,Gerald,Franklin
26,63038,Non-Unique,Glencoe,Saint Louis
27,63039,Non-Unique,Gray Summit,Franklin
28,63040,Non-Unique,Grover,Saint Louis
29,63041,Non-Unique,Grubville,Franklin
30,63042,Non-Unique,Hazelwood,Saint Louis
31,63043,Non-Unique,Maryland Heights,Saint Louis
32,63044,Non-Unique,Bridgeton,Saint Louis
33,63045,Non-Unique,Earth City,Saint Louis
34,63047,PO Box,Hematite,Jefferson
35,63048,Non-Unique,Herculaneum,Jefferson
36,63049,Non-Unique,High Ridge,Jefferson
37,63050,Non-Unique,Hillsboro,Jefferson
38,63051,Non-Unique,House Springs,Jefferson
39,63052,Non-Unique,Imperial,Jefferson
40,63053,PO Box,Kimmswick,Jefferson
41,63055,Non-Unique,Labadie,Franklin
42,63056,Non-Unique,Leslie,Franklin
43,63057,PO Box,Liguori,Jefferson
44,63060,Non-Unique,Lonedell,Franklin
45,63061,Non-Unique,Luebbering,Franklin
46,63065,PO Box,Mapaville,Jefferson
47,63066,PO Box,Morse Mill,Jefferson
48,63068,Non-Unique,New Haven,Franklin
49,63069,Non-Unique,Pacific,Franklin
50,63070,Non-Unique,Pevely,Jefferson
51,63071,Non-Unique,Richwoods,Washington
52,63072,Non-Unique,Robertsville,Franklin
53,63073,PO Box,Saint Albans,Franklin
54,63074,Non-Unique,Saint Ann,Saint Louis
55,63077,Non-Unique,Saint Clair,Franklin
56,63079,PO Box,Stanton,Franklin
57,63080,Non-Unique,Sullivan,Franklin
58,63084,Non-Unique,Union,Franklin
59,63087,Non-Unique,Valles Mines,Saint Francois
60,63088,Non-Unique,Valley Park,Saint Louis
61,63089,Non-Unique,Villa Ridge,Franklin
62,63090,Non-Unique,Washington,Franklin
63,63091,Non-Unique,Rosebud,Gasconade
64,63099,Unique,Fenton,Saint Louis
65,63101,Non-Unique,Saint Louis,Saint Louis City
66,63102,Non-Unique,Saint Louis,Saint Louis City
67,63103,Non-Unique,Saint Louis,Saint Louis City
68,63104,Non-Unique,Saint Louis,Saint Louis City
69,63105,Non-Unique,Saint Louis,Saint Louis
70,63106,Non-Unique,Saint Louis,Saint Louis City
71,63107,Non-Unique,Saint Louis,Saint Louis City
72,63108,Non-Unique,Saint Louis,Saint Louis City
73,63109,Non-Unique,Saint Louis,Saint Louis City
74,63110,Non-Unique,Saint Louis,Saint Louis City
75,63111,Non-Unique,Saint Louis,Saint Louis City
76,63112,Non-Unique,Saint Louis,Saint Louis City
77,63113,Non-Unique,Saint Louis,Saint Louis City
78,63114,Non-Unique,Saint Louis,Saint Louis
79,63115,Non-Unique,Saint Louis,Saint Louis City
80,63116,Non-Unique,Saint Louis,Saint Louis City
81,63117,Non-Unique,Saint Louis,Saint Louis
82,63118,Non-Unique,Saint Louis,Saint Louis City
83,63119,Non-Unique,Saint Louis,Saint Louis
84,63120,Non-Unique,Saint Louis,Saint Louis City
85,63121,Non-Unique,Saint Louis,Saint Louis
86,63122,Non-Unique,Saint Louis,Saint Louis
87,63123,Non-Unique,Saint Louis,Saint Louis
88,63124,Non-Unique,Saint Louis,Saint Louis
89,63125,Non-Unique,Saint Louis,Saint Louis
90,63126,Non-Unique,Saint Louis,Saint Louis
91,63127,Non-Unique,Saint Louis,Saint Louis
92,63128,Non-Unique,Saint Louis,Saint Louis
93,63129,Non-Unique,Saint Louis,Saint Louis
94,63130,Non-Unique,Saint Louis,Saint Louis
95,63131,Non-Unique,Saint Louis,Saint Louis
96,63132,Non-Unique,Saint Louis,Saint Louis
97,63133,Non-Unique,Saint Louis,Saint Louis
98,63134,Non-Unique,Saint Louis,Saint Louis
99,63135,Non-Unique,Saint Louis,Saint Louis
100,63136,Non-Unique,Saint Louis,Saint Louis
101,63137,Non-Unique,Saint Louis,Saint Louis
102,63138,Non-Unique,Saint Louis,Saint Louis
103,63139,Non-Unique,Saint Louis,Saint Louis City
104,63140,Non-Unique,Saint Louis,Saint Louis
105,63141,Non-Unique,Saint Louis,Saint Louis
106,63143,Non-Unique,Saint Louis,Saint Louis
107,63144,Non-Unique,Saint Louis,Saint Louis
108,63145,Non-Unique,Saint Louis,Saint Louis
109,63146,Non-Unique,Saint Louis,Saint Louis
110,63147,Non-Unique,Saint Louis,Saint Louis City
111,63150,Unique,Saint Louis,Saint Louis City
112,63151,PO Box,Saint Louis,Saint Louis
113,63155,Non-Unique,Saint Louis,Saint Louis City
114,63156,PO Box,Saint Louis,Saint Louis City
115,63157,PO Box,Saint Louis,Saint Louis City
116,63158,PO Box,Saint Louis,Saint Louis City
117,63160,Unique,Saint Louis,Saint Louis City
118,63163,PO Box,Saint Louis,Saint Louis City
119,63164,Unique,Saint Louis,Saint Louis City
120,63166,PO Box,Saint Louis,Saint Louis City
121,63167,Unique,Saint Louis,Saint Louis City
122,63169,PO Box,Saint Louis,Saint Louis City
123,63171,Unique,Saint Louis,Saint Louis City
124,63177,PO Box,Saint Louis,Saint Louis City
125,63178,PO Box,Saint Louis,Saint Louis City
126,63179,PO Box,Saint Louis,Saint Louis City
127,63180,Unique,Saint Louis,Saint Louis City
128,63182,Unique,Saint Louis,Saint Louis City
129,63188,PO Box,Saint Louis,Saint Louis City
130,63195,Unique,Saint Louis,Saint Louis City
131,63197,Unique,Saint Louis,Saint Louis City
132,63199,Unique,Saint Louis,Saint Louis City
133,63301,Non-Unique,Saint Charles,Saint Charles
134,63302,PO Box,Saint Charles,Saint Charles
135,63303,Non-Unique,Saint Charles,Saint Charles
136,63304,Non-Unique,Saint Charles,Saint Charles
137,63330,Non-Unique,Annada,Pike
138,63332,Non-Unique,Augusta,Saint Charles
139,63333,Non-Unique,Bellflower,Montgomery
140,63334,Non-Unique,Bowling Green,Pike
141,63336,Non-Unique,Clarksville,Pike
142,63338,PO Box,Cottleville,Saint Charles
143,63339,Non-Unique,Curryville,Pike
144,63341,Non-Unique,Defiance,Saint Charles
145,63342,PO Box,Dutzow,Warren
146,63343,Non-Unique,Elsberry,Lincoln
147,63344,Non-Unique,Eolia,Lincoln
148,63345,Non-Unique,Farber,Audrain
149,63346,PO Box,Flinthill,Saint Charles
150,63347,Non-Unique,Foley,Lincoln
151,63348,Non-Unique,Foristell,Saint Charles
152,63349,Non-Unique,Hawk Point,Lincoln
153,63350,Non-Unique,High Hill,Montgomery
154,63351,Non-Unique,Jonesburg,Montgomery
155,63352,Non-Unique,Laddonia,Audrain
156,63353,Non-Unique,Louisiana,Pike
157,63357,Non-Unique,Marthasville,Warren
158,63359,Non-Unique,Middletown,Pike
159,63361,Non-Unique,Montgomery City,Montgomery
160,63362,Non-Unique,Moscow Mills,Lincoln
161,63363,Non-Unique,New Florence,Montgomery
162,63365,PO Box,New Melle,Saint Charles
163,63366,Non-Unique,O'Fallon,Saint Charles
164,63367,Non-Unique,Lake Saint Louis,Saint Charles
165,63368,Non-Unique,O'Fallon,Saint Charles
166,63369,Non-Unique,Old Monroe,Lincoln
167,63370,Non-Unique,Olney,Lincoln
168,63373,Non-Unique,Portage Des Sioux,Saint Charles
169,63376,Non-Unique,Saint Peters,Saint Charles
170,63377,Non-Unique,Silex,Lincoln
171,63378,PO Box,Treloar,Warren
172,63379,Non-Unique,Troy,Lincoln
173,63380,Non-Unique,Truesdale,Warren
174,63381,Non-Unique,Truxton,Warren
175,63382,Non-Unique,Vandalia,Audrain
176,63383,Non-Unique,Warrenton,Warren
177,63384,Non-Unique,Wellsville,Montgomery
178,63385,Non-Unique,Wentzville,Saint Charles
179,63386,Non-Unique,West Alton,Saint Charles
180,63387,PO Box,Whiteside,Lincoln
181,63388,Non-Unique,Williamsburg,Callaway
182,63389,Non-Unique,Winfield,Lincoln
183,63390,Non-Unique,Wright City,Warren
184,63401,Non-Unique,Hannibal,Marion
185,63430,Non-Unique,Alexandria,Clark
186,63431,Non-Unique,Anabel,Macon
187,63432,Non-Unique,Arbela,Scotland
188,63433,Non-Unique,Ashburn,Pike
189,63434,Non-Unique,Bethel,Shelby
190,63435,Non-Unique,Canton,Lewis
191,63436,Non-Unique,Center,Ralls
192,63437,Non-Unique,Clarence,Shelby
193,63438,Non-Unique,Durham,Lewis
194,63439,Non-Unique,Emden,Shelby
195,63440,Non-Unique,Ewing,Lewis
196,63441,Non-Unique,Frankford,Pike
197,63442,Non-Unique,Granger,Scotland
198,63443,Non-Unique,Hunnewell,Shelby
199,63445,Non-Unique,Kahoka,Clark
200,63446,Non-Unique,Knox City,Knox
201,63447,Non-Unique,La Belle,Lewis
202,63448,Non-Unique,La Grange,Lewis
203,63450,Non-Unique,Lentner,Shelby
204,63451,Non-Unique,Leonard,Shelby
205,63452,Non-Unique,Lewistown,Lewis
206,63453,Non-Unique,Luray,Clark
207,63454,Non-Unique,Maywood,Marion
208,63456,Non-Unique,Monroe City,Ralls
209,63457,Non-Unique,Monticello,Lewis
210,63458,Non-Unique,Newark,Knox
211,63459,Non-Unique,New London,Ralls
212,63460,Non-Unique,Novelty,Knox
213,63461,Non-Unique,Palmyra,Marion
214,63462,Non-Unique,Perry,Ralls
215,63463,Non-Unique,Philadelphia,Marion
216,63464,Non-Unique,Plevna,Knox
217,63465,Non-Unique,Revere,Clark
218,63466,Non-Unique,Saint Patrick,Clark
219,63467,PO Box,Saverton,Ralls
220,63468,Non-Unique,Shelbina,Shelby
221,63469,Non-Unique,Shelbyville,Shelby
222,63471,Non-Unique,Taylor,Marion
223,63472,Non-Unique,Wayland,Clark
224,63473,Non-Unique,Williamstown,Lewis
225,63474,Non-Unique,Wyaconda,Clark
226,63501,Non-Unique,Kirksville,Adair
227,63530,Non-Unique,Atlanta,Macon
228,63531,Non-Unique,Baring,Knox
229,63532,Non-Unique,Bevier,Macon
230,63533,Non-Unique,Brashear,Adair
231,63534,Non-Unique,Callao,Macon
232,63535,Non-Unique,Coatsville,Schuyler
233,63536,Non-Unique,Downing,Schuyler
234,63537,Non-Unique,Edina,Knox
235,63538,Non-Unique,Elmer,Macon
236,63539,Non-Unique,Ethel,Macon
237,63540,Non-Unique,Gibbs,Adair
238,63541,Non-Unique,Glenwood,Schuyler
239,63543,Non-Unique,Gorin,Scotland
240,63544,Non-Unique,Green Castle,Sullivan
241,63545,Non-Unique,Green City,Sullivan
242,63546,Non-Unique,Greentop,Adair
243,63547,Non-Unique,Hurdland,Knox
244,63548,Non-Unique,Lancaster,Schuyler
245,63549,Non-Unique,La Plata,Macon
246,63551,Non-Unique,Livonia,Putnam
247,63552,Non-Unique,Macon,Macon
248,63555,Non-Unique,Memphis,Scotland
249,63556,Non-Unique,Milan,Sullivan
250,63557,Non-Unique,New Boston,Linn
251,63558,Non-Unique,New Cambria,Macon
252,63559,Non-Unique,Novinger,Adair
253,63560,Non-Unique,Pollock,Sullivan
254,63561,Non-Unique,Queen City,Schuyler
255,63563,Non-Unique,Rutledge,Scotland
256,63565,Non-Unique,Unionville,Putnam
257,63566,Non-Unique,Winigan,Linn
258,63567,Non-Unique,Worthington,Putnam
259,63601,Non-Unique,Park Hills,Saint Francois
260,63620,Non-Unique,Annapolis,Iron
261,63621,Non-Unique,Arcadia,Iron
262,63622,Non-Unique,Belgrade,Washington
263,63623,Non-Unique,Belleview,Iron
264,63624,Non-Unique,Bismarck,Saint Francois
265,63625,Non-Unique,Black,Reynolds
266,63626,Non-Unique,Blackwell,Washington
267,63627,Non-Unique,Bloomsdale,Ste Genevieve
268,63628,Non-Unique,Bonne Terre,Saint Francois
269,63629,Non-Unique,Bunker,Reynolds
270,63630,Non-Unique,Cadet,Washington
271,63631,Non-Unique,Caledonia,Washington
272,63632,PO Box,Cascade,Wayne
273,63633,Non-Unique,Centerville,Reynolds
274,63636,Non-Unique,Des Arc,Iron
275,63637,Non-Unique,Doe Run,Saint Francois
276,63638,Non-Unique,Ellington,Reynolds
277,63640,Non-Unique,Farmington,Saint Francois
278,63645,Non-Unique,Fredericktown,Madison
279,63648,Non-Unique,Irondale,Washington
280,63650,Non-Unique,Ironton,Iron
281,63651,PO Box,Knob Lick,Saint Francois
282,63653,Non-Unique,Leadwood,Saint Francois
283,63654,Non-Unique,Lesterville,Reynolds
284,63655,Non-Unique,Marquand,Madison
285,63656,Non-Unique,Middle Brook,Iron
286,63660,Non-Unique,Mineral Point,Washington
287,63662,Non-Unique,Patton,Bollinger
288,63663,PO Box,Pilot Knob,Iron
289,63664,Non-Unique,Potosi,Washington
290,63665,Non-Unique,Redford,Reynolds
291,63666,PO Box,Reynolds,Reynolds
292,63670,Non-Unique,Sainte Genevieve,Ste Genevieve
293,63673,Non-Unique,Saint Mary,Ste Genevieve
294,63674,PO Box,Tiff,Washington
295,63675,Non-Unique,Vulcan,Iron
296,63701,Non-Unique,Cape Girardeau,Cape Girardeau
297,63702,PO Box,Cape Girardeau,Cape Girardeau
298,63703,Non-Unique,Cape Girardeau,Cape Girardeau
299,63730,Non-Unique,Advance,Stoddard
300,63732,Non-Unique,Altenburg,Perry
301,63735,Non-Unique,Bell City,Stoddard
302,63736,Non-Unique,Benton,Scott
303,63737,Non-Unique,Brazeau,Perry
304,63738,PO Box,Brownwood,Stoddard
305,63739,Non-Unique,Burfordville,Cape Girardeau
306,63740,Non-Unique,Chaffee,Scott
307,63742,PO Box,Commerce,Scott
308,63743,Non-Unique,Daisy,Cape Girardeau
309,63744,Non-Unique,Delta,Cape Girardeau
310,63745,PO Box,Dutchtown,Cape Girardeau
311,63746,PO Box,Farrar,Perry
312,63747,Non-Unique,Friedheim,Cape Girardeau
313,63748,Non-Unique,Frohna,Perry
314,63750,Non-Unique,Gipsy,Bollinger
315,63751,Non-Unique,Glenallen,Bollinger
316,63752,PO Box,Gordonville,Cape Girardeau
317,63755,Non-Unique,Jackson,Cape Girardeau
318,63758,PO Box,Kelso,Scott
319,63760,Non-Unique,Leopold,Bollinger
320,63763,Non-Unique,McGee,Wayne
321,63764,Non-Unique,Marble Hill,Bollinger
322,63766,Non-Unique,Millersville,Cape Girardeau
323,63767,PO Box,Morley,Scott
324,63769,Non-Unique,Oak Ridge,Cape Girardeau
325,63770,Non-Unique,Old Appleton,Cape Girardeau
326,63771,Non-Unique,Oran,Scott
327,63774,PO Box,Perkins,Scott
328,63775,Non-Unique,Perryville,Perry
329,63776,PO Box,McBride,Perry
330,63779,PO Box,Pocahontas,Cape Girardeau
331,63780,Non-Unique,Scott City,Scott
332,63781,Non-Unique,Sedgewickville,Bollinger
333,63782,Non-Unique,Sturdivant,Bollinger
334,63783,Non-Unique,Uniontown,Perry
335,63784,PO Box,Vanduser,Scott
336,63785,Non-Unique,Whitewater,Cape Girardeau
337,63787,Non-Unique,Zalma,Bollinger
338,63801,Non-Unique,Sikeston,Scott
339,63820,PO Box,Anniston,Mississippi
340,63821,Non-Unique,Arbyrd,Dunklin
341,63822,Non-Unique,Bernie,Stoddard
342,63823,Non-Unique,Bertrand,Mississippi
343,63824,PO Box,Blodgett,Scott
344,63825,Non-Unique,Bloomfield,Stoddard
345,63826,PO Box,Braggadocio,Pemiscot
346,63827,Non-Unique,Bragg City,Pemiscot
347,63828,PO Box,Canalou,New Madrid
348,63829,Non-Unique,Cardwell,Dunklin
349,63830,Non-Unique,Caruthersville,Pemiscot
350,63833,Non-Unique,Catron,New Madrid
351,63834,Non-Unique,Charleston,Mississippi
352,63837,Non-Unique,Clarkton,Dunklin
353,63839,PO Box,Cooter,Pemiscot
354,63840,PO Box,Deering,Pemiscot
355,63841,Non-Unique,Dexter,Stoddard
356,63845,Non-Unique,East Prairie,Mississippi
357,63846,Non-Unique,Essex,Stoddard
358,63847,PO Box,Gibson,Dunklin
359,63848,Non-Unique,Gideon,New Madrid
360,63849,Non-Unique,Gobler,Pemiscot
361,63850,PO Box,Grayridge,Stoddard
362,63851,Non-Unique,Hayti,Pemiscot
363,63852,Non-Unique,Holcomb,Dunklin
364,63853,PO Box,Holland,Pemiscot
365,63855,Non-Unique,Hornersville,Dunklin
366,63857,Non-Unique,Kennett,Dunklin
367,63860,PO Box,Kewanee,New Madrid
368,63862,Non-Unique,Lilbourn,New Madrid
369,63863,Non-Unique,Malden,Dunklin
370,63866,Non-Unique,Marston,New Madrid
371,63867,Non-Unique,Matthews,New Madrid
372,63868,Non-Unique,Morehouse,New Madrid
373,63869,Non-Unique,New Madrid,New Madrid
374,63870,Non-Unique,Parma,New Madrid
375,63873,Non-Unique,Portageville,New Madrid
376,63874,PO Box,Risco,New Madrid
377,63875,PO Box,Rives,Dunklin
378,63876,Non-Unique,Senath,Dunklin
379,63877,Non-Unique,Steele,Pemiscot
380,63878,PO Box,Tallapoosa,New Madrid
381,63879,Non-Unique,Wardell,Pemiscot
382,63880,PO Box,Whiteoak,Dunklin
383,63881,PO Box,Wolf Island,Mississippi
384,63882,PO Box,Wyatt,Mississippi
385,63901,Non-Unique,Poplar Bluff,Butler
386,63902,PO Box,Poplar Bluff,Butler
387,63931,Non-Unique,Briar,Ripley
388,63932,Non-Unique,Broseley,Butler
389,63933,Non-Unique,Campbell,Dunklin
390,63934,Non-Unique,Clubb,Wayne
391,63935,Non-Unique,Doniphan,Ripley
392,63936,Non-Unique,Dudley,Stoddard
393,63937,Non-Unique,Ellsinore,Carter
394,63938,PO Box,Fagus,Butler
395,63939,Non-Unique,Fairdealing,Ripley
396,63940,Non-Unique,Fisk,Butler
397,63941,Non-Unique,Fremont,Carter
398,63942,Non-Unique,Gatewood,Ripley
399,63943,Non-Unique,Grandin,Carter
400,63944,Non-Unique,Greenville,Wayne
401,63945,Non-Unique,Harviell,Butler
402,63950,Non-Unique,Lodi,Wayne
403,63951,Non-Unique,Lowndes,Wayne
404,63952,Non-Unique,Mill Spring,Wayne
405,63953,Non-Unique,Naylor,Ripley
406,63954,Non-Unique,Neelyville,Butler
407,63955,Non-Unique,Oxly,Ripley
408,63956,Non-Unique,Patterson,Wayne
409,63957,Non-Unique,Piedmont,Wayne
410,63960,Non-Unique,Puxico,Stoddard
411,63961,Non-Unique,Qulin,Butler
412,63962,PO Box,Rombauer,Butler
413,63963,Non-Unique,Shook,Wayne
414,63964,Non-Unique,Silva,Wayne
415,63965,Non-Unique,Van Buren,Carter
416,63966,Non-Unique,Wappapello,Wayne
417,63967,Non-Unique,Williamsville,Wayne
418,64001,Non-Unique,Alma,Lafayette
419,64002,Unique,Lee's Summit,Jackson
420,64011,Non-Unique,Bates City,Lafayette
421,64012,Non-Unique,Belton,Cass
422,64013,PO Box,Blue Springs,Jackson
423,64014,Non-Unique,Blue Springs,Jackson
424,64015,Non-Unique,Blue Springs,Jackson
425,64016,Non-Unique,Buckner,Jackson
426,64017,Non-Unique,Camden,Ray
427,64018,Non-Unique,Camden Point,Platte
428,64019,Non-Unique,Centerview,Johnson
429,64020,Non-Unique,Concordia,Lafayette
430,64021,Non-Unique,Corder,Lafayette
431,64022,Non-Unique,Dover,Lafayette
432,64024,Non-Unique,Excelsior Springs,Clay
433,64028,PO Box,Farley,Platte
434,64029,Non-Unique,Grain Valley,Jackson
435,64030,Non-Unique,Grandview,Jackson
436,64034,Non-Unique,Greenwood,Jackson
437,64035,Non-Unique,Hardin,Ray
438,64036,Non-Unique,Henrietta,Ray
439,64037,Non-Unique,Higginsville,Lafayette
440,64040,Non-Unique,Holden,Johnson
441,64048,Non-Unique,Holt,Clay
442,64050,Non-Unique,Independence,Jackson
443,64051,PO Box,Independence,Jackson
444,64052,Non-Unique,Independence,Jackson
445,64053,Non-Unique,Independence,Jackson
446,64054,Non-Unique,Independence,Jackson
447,64055,Non-Unique,Independence,Jackson
448,64056,Non-Unique,Independence,Jackson
449,64057,Non-Unique,Independence,Jackson
450,64058,Non-Unique,Independence,Jackson
451,64060,Non-Unique,Kearney,Clay
452,64061,Non-Unique,Kingsville,Johnson
453,64062,Non-Unique,Lawson,Ray
454,64063,Non-Unique,Lee's Summit,Jackson
455,64064,Non-Unique,Lee's Summit,Jackson
456,64065,Unique,Lee's Summit,Jackson
457,64066,PO Box,Levasy,Jackson
458,64067,Non-Unique,Lexington,Lafayette
459,64068,Non-Unique,Liberty,Clay
460,64069,PO Box,Liberty,Clay
461,64070,Non-Unique,Lone Jack,Jackson
462,64071,Non-Unique,Mayview,Lafayette
463,64072,PO Box,Missouri City,Clay
464,64073,PO Box,Mosby,Clay
465,64074,Non-Unique,Napoleon,Lafayette
466,64075,Non-Unique,Oak Grove,Jackson
467,64076,Non-Unique,Odessa,Lafayette
468,64077,Non-Unique,Orrick,Ray
469,64078,Non-Unique,Peculiar,Cass
470,64079,Non-Unique,Platte City,Platte
471,64080,Non-Unique,Pleasant Hill,Cass
472,64081,Non-Unique,Lee's Summit,Jackson
473,64082,Non-Unique,Lee's Summit,Jackson
474,64083,Non-Unique,Raymore,Cass
475,64084,Non-Unique,Rayville,Ray
476,64085,Non-Unique,Richmond,Ray
477,64086,Non-Unique,Lee's Summit,Jackson
478,64088,Non-Unique,Sibley,Jackson
479,64089,Non-Unique,Smithville,Clay
480,64090,PO Box,Strasburg,Cass
481,64092,PO Box,Waldron,Platte
482,64093,Non-Unique,Warrensburg,Johnson
483,64096,Non-Unique,Waverly,Lafayette
484,64097,Non-Unique,Wellington,Lafayette
485,64098,Non-Unique,Weston,Platte
486,64101,Non-Unique,Kansas City,Jackson
487,64102,Non-Unique,Kansas City,Jackson
488,64105,Non-Unique,Kansas City,Jackson
489,64106,Non-Unique,Kansas City,Jackson
490,64108,Non-Unique,Kansas City,Jackson
491,64109,Non-Unique,Kansas City,Jackson
492,64110,Non-Unique,Kansas City,Jackson
493,64111,Non-Unique,Kansas City,Jackson
494,64112,Non-Unique,Kansas City,Jackson
495,64113,Non-Unique,Kansas City,Jackson
496,64114,Non-Unique,Kansas City,Jackson
497,64116,Non-Unique,Kansas City,Clay
498,64117,Non-Unique,Kansas City,Clay
499,64118,Non-Unique,Kansas City,Clay
500,64119,Non-Unique,Kansas City,Clay
501,64120,Non-Unique,Kansas City,Jackson
502,64121,PO Box,Kansas City,Jackson
503,64123,Non-Unique,Kansas City,Jackson
504,64124,Non-Unique,Kansas City,Jackson
505,64125,Non-Unique,Kansas City,Jackson
506,64126,Non-Unique,Kansas City,Jackson
507,64127,Non-Unique,Kansas City,Jackson
508,64128,Non-Unique,Kansas City,Jackson
509,64129,Non-Unique,Kansas City,Jackson
510,64130,Non-Unique,Kansas City,Jackson
511,64131,Non-Unique,Kansas City,Jackson
512,64132,Non-Unique,Kansas City,Jackson
513,64133,Non-Unique,Kansas City,Jackson
514,64134,Non-Unique,Kansas City,Jackson
515,64136,Non-Unique,Kansas City,Jackson
516,64137,Non-Unique,Kansas City,Jackson
517,64138,Non-Unique,Kansas City,Jackson
518,64139,Non-Unique,Kansas City,Jackson
519,64141,PO Box,Kansas City,Jackson
520,64144,Unique,Kansas City,Jackson
521,64145,Non-Unique,Kansas City,Jackson
522,64146,Non-Unique,Kansas City,Jackson
523,64147,Non-Unique,Kansas City,Jackson
524,64148,PO Box,Kansas City,Jackson
525,64149,Non-Unique,Kansas City,Jackson
526,64150,Non-Unique,Riverside,Platte
527,64151,Non-Unique,Kansas City,Platte
528,64152,Non-Unique,Kansas City,Platte
529,64153,Non-Unique,Kansas City,Platte
530,64154,Non-Unique,Kansas City,Platte
531,64155,Non-Unique,Kansas City,Clay
532,64156,Non-Unique,Kansas City,Clay
533,64157,Non-Unique,Kansas City,Clay
534,64158,Non-Unique,Kansas City,Clay
535,64161,Non-Unique,Kansas City,Clay
536,64163,Non-Unique,Kansas City,Platte
537,64164,Non-Unique,Kansas City,Platte
538,64165,Non-Unique,Kansas City,Clay
539,64166,Non-Unique,Kansas City,Clay
540,64167,Non-Unique,Kansas City,Clay
541,64168,PO Box,Kansas City,Platte
542,64170,Unique,Kansas City,Jackson
543,64171,PO Box,Kansas City,Jackson
544,64179,Unique,Kansas City,Jackson
545,64180,Unique,Kansas City,Jackson
546,64184,Unique,Kansas City,Jackson
547,64187,Unique,Kansas City,Jackson
548,64188,PO Box,Kansas City,Jackson
549,64190,PO Box,Kansas City,Jackson
550,64191,PO Box,Kansas City,Jackson
551,64195,PO Box,Kansas City,Platte
552,64196,PO Box,Kansas City,Jackson
553,64197,Unique,Kansas City,Jackson
554,64198,Unique,Kansas City,Jackson
555,64199,PO Box,Kansas City,Jackson
556,64401,Non-Unique,Agency,Buchanan
557,64402,Non-Unique,Albany,Gentry
558,64420,PO Box,Allendale,Worth
559,64421,Non-Unique,Amazonia,Andrew
560,64422,Non-Unique,Amity,DeKalb
561,64423,Non-Unique,Barnard,Nodaway
562,64424,Non-Unique,Bethany,Harrison
563,64426,Non-Unique,Blythedale,Harrison
564,64427,Non-Unique,Bolckow,Andrew
565,64428,Non-Unique,Burlington Junction,Nodaway
566,64429,Non-Unique,Cameron,DeKalb
567,64430,Non-Unique,Clarksdale,DeKalb
568,64431,Non-Unique,Clearmont,Nodaway
569,64432,Non-Unique,Clyde,Nodaway
570,64433,Non-Unique,Conception,Nodaway
571,64434,Non-Unique,Conception Junction,Nodaway
572,64436,Non-Unique,Cosby,Andrew
573,64437,Non-Unique,Craig,Holt
574,64438,Non-Unique,Darlington,Gentry
575,64439,Non-Unique,Dearborn,Platte
576,64440,Non-Unique,De Kalb,Buchanan
577,64441,Non-Unique,Denver,Worth
578,64442,Non-Unique,Eagleville,Harrison
579,64443,Non-Unique,Easton,Buchanan
580,64444,Non-Unique,Edgerton,Platte
581,64445,Non-Unique,Elmo,Nodaway
582,64446,Non-Unique,Fairfax,Atchison
583,64448,Non-Unique,Faucett,Buchanan
584,64449,Non-Unique,Fillmore,Andrew
585,64451,Non-Unique,Forest City,Holt
586,64453,Non-Unique,Gentry,Gentry
587,64454,Non-Unique,Gower,Clinton
588,64455,Non-Unique,Graham,Nodaway
589,64456,Non-Unique,Grant City,Worth
590,64457,Non-Unique,Guilford,Nodaway
591,64458,Non-Unique,Hatfield,Harrison
592,64459,Non-Unique,Helena,Andrew
593,64461,Non-Unique,Hopkins,Nodaway
594,64463,Non-Unique,King City,Gentry
595,64465,Non-Unique,Lathrop,Clinton
596,64466,Non-Unique,Maitland,Holt
597,64467,Non-Unique,Martinsville,Harrison
598,64468,Non-Unique,Maryville,Nodaway
599,64469,Non-Unique,Maysville,DeKalb
600,64470,Non-Unique,Mound City,Holt
601,64471,Non-Unique,New Hampton,Harrison
602,64473,Non-Unique,Oregon,Holt
603,64474,Non-Unique,Osborn,DeKalb
604,64475,Non-Unique,Parnell,Nodaway
605,64476,Non-Unique,Pickering,Nodaway
606,64477,Non-Unique,Plattsburg,Clinton
607,64479,Non-Unique,Ravenwood,Nodaway
608,64480,Non-Unique,Rea,Andrew
609,64481,Non-Unique,Ridgeway,Harrison
610,64482,Non-Unique,Rock Port,Atchison
611,64483,Non-Unique,Rosendale,Andrew
612,64484,Non-Unique,Rushville,Buchanan
613,64485,Non-Unique,Savannah,Andrew
614,64486,Non-Unique,Sheridan,Worth
615,64487,Non-Unique,Skidmore,Nodaway
616,64489,Non-Unique,Stanberry,Gentry
617,64490,Non-Unique,Stewartsville,Clinton
618,64491,Non-Unique,Tarkio,Atchison
619,64492,Non-Unique,Trimble,Clinton
620,64493,Non-Unique,Turney,Clinton
621,64494,Non-Unique,Union Star,DeKalb
622,64496,Non-Unique,Watson,Atchison
623,64497,Non-Unique,Weatherby,DeKalb
624,64498,Non-Unique,Westboro,Atchison
625,64499,Non-Unique,Worth,Worth
626,64501,Non-Unique,Saint Joseph,Buchanan
627,64502,PO Box,Saint Joseph,Buchanan
628,64503,Non-Unique,Saint Joseph,Buchanan
629,64504,Non-Unique,Saint Joseph,Buchanan
630,64505,Non-Unique,Saint Joseph,Andrew
631,64506,Non-Unique,Saint Joseph,Buchanan
632,64507,Non-Unique,Saint Joseph,Buchanan
633,64508,PO Box,Saint Joseph,Buchanan
634,64601,Non-Unique,Chillicothe,Livingston
635,64620,Non-Unique,Altamont,Daviess
636,64622,Non-Unique,Bogard,Carroll
637,64623,Non-Unique,Bosworth,Carroll
638,64624,Non-Unique,Braymer,Caldwell
639,64625,Non-Unique,Breckenridge,Caldwell
640,64628,Non-Unique,Brookfield,Linn
641,64630,Non-Unique,Browning,Linn
642,64631,Non-Unique,Bucklin,Linn
643,64632,Non-Unique,Cainsville,Mercer
644,64633,Non-Unique,Carrollton,Carroll
645,64635,Non-Unique,Chula,Livingston
646,64636,Non-Unique,Coffey,Daviess
647,64637,Non-Unique,Cowgill,Caldwell
648,64638,Non-Unique,Dawn,Livingston
649,64639,Non-Unique,De Witt,Carroll
650,64640,Non-Unique,Gallatin,Daviess
651,64641,Non-Unique,Galt,Grundy
652,64642,Non-Unique,Gilman City,Harrison
653,64643,Non-Unique,Hale,Carroll
654,64644,Non-Unique,Hamilton,Caldwell
655,64645,Non-Unique,Harris,Sullivan
656,64646,Non-Unique,Humphreys,Sullivan
657,64647,Non-Unique,Jameson,Daviess
658,64648,Non-Unique,Jamesport,Daviess
659,64649,Non-Unique,Kidder,Caldwell
660,64650,Non-Unique,Kingston,Caldwell
661,64651,Non-Unique,Laclede,Linn
662,64652,Non-Unique,Laredo,Grundy
663,64653,Non-Unique,Linneus,Linn
664,64654,Non-Unique,Lock Springs,Daviess
665,64655,Non-Unique,Lucerne,Putnam
666,64656,Non-Unique,Ludlow,Livingston
667,64657,Non-Unique,McFall,Gentry
668,64658,Non-Unique,Marceline,Chariton
669,64659,Non-Unique,Meadville,Linn
670,64660,Non-Unique,Mendon,Chariton
671,64661,Non-Unique,Mercer,Mercer
672,64664,Non-Unique,Mooresville,Livingston
673,64667,Non-Unique,Newtown,Sullivan
674,64668,Non-Unique,Norborne,Carroll
675,64670,Non-Unique,Pattonsburg,Daviess
676,64671,Non-Unique,Polo,Caldwell
677,64672,Non-Unique,Powersville,Putnam
678,64673,Non-Unique,Princeton,Mercer
679,64674,Non-Unique,Purdin,Linn
680,64676,Non-Unique,Rothville,Chariton
681,64679,Non-Unique,Spickard,Grundy
682,64680,PO Box,Stet,Carroll
683,64681,Non-Unique,Sumner,Chariton
684,64682,Non-Unique,Tina,Carroll
685,64683,Non-Unique,Trenton,Grundy
686,64686,Non-Unique,Utica,Livingston
687,64688,Non-Unique,Wheeling,Livingston
688,64689,Non-Unique,Winston,Daviess
689,64701,Non-Unique,Harrisonville,Cass
690,64720,Non-Unique,Adrian,Bates
691,64722,Non-Unique,Amoret,Bates
692,64723,Non-Unique,Amsterdam,Bates
693,64724,Non-Unique,Appleton City,Saint Clair
694,64725,Non-Unique,Archie,Cass
695,64726,Non-Unique,Blairstown,Henry
696,64728,Non-Unique,Bronaugh,Vernon
697,64730,Non-Unique,Butler,Bates
698,64733,Non-Unique,Chilhowee,Johnson
699,64734,Non-Unique,Cleveland,Cass
700,64735,Non-Unique,Clinton,Henry
701,64738,Non-Unique,Collins,Saint Clair
702,64739,Non-Unique,Creighton,Cass
703,64740,Non-Unique,Deepwater,Henry
704,64741,Non-Unique,Deerfield,Vernon
705,64742,Non-Unique,Drexel,Cass
706,64743,PO Box,East Lynne,Cass
707,64744,Non-Unique,El Dorado Springs,Cedar
708,64745,Non-Unique,Foster,Bates
709,64746,Non-Unique,Freeman,Cass
710,64747,Non-Unique,Garden City,Cass
711,64748,Non-Unique,Golden City,Barton
712,64750,Non-Unique,Harwood,Vernon
713,64752,Non-Unique,Hume,Vernon
714,64755,Non-Unique,Jasper,Jasper
715,64756,Non-Unique,Jerico Springs,Cedar
716,64759,Non-Unique,Lamar,Barton
717,64761,Non-Unique,Leeton,Johnson
718,64762,Non-Unique,Liberal,Barton
719,64763,Non-Unique,Lowry City,Saint Clair
720,64765,PO Box,Metz,Vernon
721,64766,PO Box,Milford,Barton
722,64767,Non-Unique,Milo,Vernon
723,64769,Non-Unique,Mindenmines,Barton
724,64770,Non-Unique,Montrose,Henry
725,64771,Non-Unique,Moundville,Vernon
726,64772,Non-Unique,Nevada,Vernon
727,64776,Non-Unique,Osceola,Saint Clair
728,64778,Non-Unique,Richards,Vernon
729,64779,Non-Unique,Rich Hill,Bates
730,64780,Non-Unique,Rockville,Bates
731,64781,PO Box,Roscoe,Saint Clair
732,64783,Non-Unique,Schell City,Vernon
733,64784,Non-Unique,Sheldon,Vernon
734,64788,Non-Unique,Urich,Henry
735,64790,Non-Unique,Walker,Vernon
736,64801,Non-Unique,Joplin,Jasper
737,64802,PO Box,Joplin,Jasper
738,64803,PO Box,Joplin,Jasper
739,64804,Non-Unique,Joplin,Newton
740,64830,PO Box,Alba,Jasper
741,64831,Non-Unique,Anderson,McDonald
742,64832,Non-Unique,Asbury,Jasper
743,64833,Non-Unique,Avilla,Jasper
744,64834,Non-Unique,Carl Junction,Jasper
745,64835,Non-Unique,Carterville,Jasper
746,64836,Non-Unique,Carthage,Jasper
747,64840,Non-Unique,Diamond,Newton
748,64841,PO Box,Duenweg,Jasper
749,64842,Non-Unique,Fairview,Newton
750,64843,Non-Unique,Goodman,McDonald
751,64844,Non-Unique,Granby,Newton
752,64847,Non-Unique,Lanagan,McDonald
753,64848,Non-Unique,La Russell,Lawrence
754,64849,PO Box,Neck City,Jasper
755,64850,Non-Unique,Neosho,Newton
756,64853,PO Box,Newtonia,Newton
757,64854,Non-Unique,Noel,McDonald
758,64855,Non-Unique,Oronogo,Jasper
759,64856,Non-Unique,Pineville,McDonald
760,64857,PO Box,Purcell,Jasper
761,64858,PO Box,Racine,Newton
762,64859,Non-Unique,Reeds,Jasper
763,64861,Non-Unique,Rocky Comfort,McDonald
764,64862,Non-Unique,Sarcoxie,Jasper
765,64863,Non-Unique,South West City,McDonald
766,64864,PO Box,Saginaw,Newton
767,64865,Non-Unique,Seneca,Newton
768,64866,Non-Unique,Stark City,Newton
769,64867,Non-Unique,Stella,McDonald
770,64868,Non-Unique,Tiff City,McDonald
771,64870,Non-Unique,Webb City,Jasper
772,64873,Non-Unique,Wentworth,Newton
773,64874,Non-Unique,Wheaton,Barry
774,64999,Unique,Kansas City,Jackson
775,65001,Non-Unique,Argyle,Osage
776,65010,Non-Unique,Ashland,Boone
777,65011,Non-Unique,Barnett,Morgan
778,65013,Non-Unique,Belle,Maries
779,65014,Non-Unique,Bland,Gasconade
780,65016,Non-Unique,Bonnots Mill,Osage
781,65017,Non-Unique,Brumley,Miller
782,65018,Non-Unique,California,Moniteau
783,65020,Non-Unique,Camdenton,Camden
784,65023,Non-Unique,Centertown,Cole
785,65024,Non-Unique,Chamois,Osage
786,65025,Non-Unique,Clarksburg,Moniteau
787,65026,Non-Unique,Eldon,Miller
788,65032,Non-Unique,Eugene,Miller
789,65034,Non-Unique,Fortuna,Morgan
790,65035,Non-Unique,Freeburg,Osage
791,65036,PO Box,Gasconade,Gasconade
792,65037,Non-Unique,Gravois Mills,Morgan
793,65038,PO Box,Laurie,Morgan
794,65039,Non-Unique,Hartsburg,Boone
795,65040,Non-Unique,Henley,Cole
796,65041,Non-Unique,Hermann,Gasconade
797,65042,Non-Unique,High Point,Moniteau
798,65043,Non-Unique,Holts Summit,Callaway
799,65046,Non-Unique,Jamestown,Moniteau
800,65047,Non-Unique,Kaiser,Miller
801,65048,Non-Unique,Koeltztown,Osage
802,65049,Non-Unique,Lake Ozark,Camden
803,65050,Non-Unique,Latham,Moniteau
804,65051,Non-Unique,Linn,Osage
805,65052,Non-Unique,Linn Creek,Camden
806,65053,Non-Unique,Lohman,Cole
807,65054,Non-Unique,Loose Creek,Osage
808,65055,PO Box,McGirk,Moniteau
809,65058,Non-Unique,Meta,Maries
810,65059,Non-Unique,Mokane,Callaway
811,65061,Non-Unique,Morrison,Gasconade
812,65062,Non-Unique,Mount Sterling,Gasconade
813,65063,Non-Unique,New Bloomfield,Callaway
814,65064,Non-Unique,Olean,Miller
815,65065,Non-Unique,Osage Beach,Camden
816,65066,Non-Unique,Owensville,Gasconade
817,65067,Non-Unique,Portland,Callaway
818,65068,Non-Unique,Prairie Home,Cooper
819,65069,Non-Unique,Rhineland,Montgomery
820,65072,Non-Unique,Rocky Mount,Morgan
821,65074,Non-Unique,Russellville,Cole
822,65075,Non-Unique,Saint Elizabeth,Miller
823,65076,Non-Unique,Saint Thomas,Cole
824,65077,Non-Unique,Steedman,Callaway
825,65078,Non-Unique,Stover,Morgan
826,65079,Non-Unique,Sunrise Beach,Camden
827,65080,Non-Unique,Tebbetts,Callaway
828,65081,Non-Unique,Tipton,Moniteau
829,65082,Non-Unique,Tuscumbia,Miller
830,65083,Non-Unique,Ulman,Miller
831,65084,Non-Unique,Versailles,Morgan
832,65085,Non-Unique,Westphalia,Osage
833,65101,Non-Unique,Jefferson City,Cole
834,65102,PO Box,Jefferson City,Cole
835,65103,Unique,Jefferson City,Cole
836,65104,Unique,Jefferson City,Cole
837,65105,Unique,Jefferson City,Cole
838,65106,Unique,Jefferson City,Cole
839,65107,Unique,Jefferson City,Cole
840,65108,Unique,Jefferson City,Cole
841,65109,Non-Unique,Jefferson City,Cole
842,65110,PO Box,Jefferson City,Cole
843,65111,Unique,Jefferson City,Cole
844,65201,Non-Unique,Columbia,Boone
845,65202,Non-Unique,Columbia,Boone
846,65203,Non-Unique,Columbia,Boone
847,65205,PO Box,Columbia,Boone
848,65211,Non-Unique,Columbia,Boone
849,65212,Unique,Columbia,Boone
850,65215,Non-Unique,Columbia,Boone
851,65216,Non-Unique,Columbia,Boone
852,65217,Unique,Columbia,Boone
853,65218,Unique,Columbia,Boone
854,65230,Non-Unique,Armstrong,Howard
855,65231,Non-Unique,Auxvasse,Callaway
856,65232,Non-Unique,Benton City,Audrain
857,65233,Non-Unique,Boonville,Cooper
858,65236,Non-Unique,Brunswick,Chariton
859,65237,Non-Unique,Bunceton,Cooper
860,65239,Non-Unique,Cairo,Randolph
861,65240,Non-Unique,Centralia,Audrain
862,65243,Non-Unique,Clark,Randolph
863,65244,Non-Unique,Clifton Hill,Randolph
864,65246,Non-Unique,Dalton,Chariton
865,65247,Non-Unique,Excello,Macon
866,65248,Non-Unique,Fayette,Howard
867,65250,Non-Unique,Franklin,Howard
868,65251,Non-Unique,Fulton,Callaway
869,65254,Non-Unique,Glasgow,Howard
870,65255,Non-Unique,Hallsville,Boone
871,65256,Non-Unique,Harrisburg,Boone
872,65257,Non-Unique,Higbee,Howard
873,65258,Non-Unique,Holliday,Monroe
874,65259,Non-Unique,Huntsville,Randolph
875,65260,Non-Unique,Jacksonville,Randolph
876,65261,Non-Unique,Keytesville,Chariton
877,65262,Non-Unique,Kingdom City,Callaway
878,65263,Non-Unique,Madison,Monroe
879,65264,Non-Unique,Martinsburg,Audrain
880,65265,Non-Unique,Mexico,Audrain
881,65270,Non-Unique,Moberly,Randolph
882,65274,Non-Unique,New Franklin,Howard
883,65275,Non-Unique,Paris,Monroe
884,65276,Non-Unique,Pilot Grove,Cooper
885,65278,PO Box,Renick,Randolph
886,65279,Non-Unique,Rocheport,Boone
887,65280,Non-Unique,Rush Hill,Audrain
888,65281,Non-Unique,Salisbury,Chariton
889,65282,Non-Unique,Santa Fe,Monroe
890,65283,Non-Unique,Stoutsville,Monroe
891,65284,Non-Unique,Sturgeon,Boone
892,65285,Non-Unique,Thompson,Audrain
893,65286,Non-Unique,Triplett,Chariton
894,65287,Non-Unique,Wooldridge,Cooper
895,65299,Non-Unique,Columbia,Boone
896,65301,Non-Unique,Sedalia,Pettis
897,65302,PO Box,Sedalia,Pettis
898,65305,Non-Unique,Whiteman AFB,Johnson
899,65320,PO Box,Arrow Rock,Saline
900,65321,Non-Unique,Blackburn,Saline
901,65322,Non-Unique,Blackwater,Cooper
902,65323,Non-Unique,Calhoun,Henry
903,65324,Non-Unique,Climax Springs,Camden
904,65325,Non-Unique,Cole Camp,Benton
905,65326,Non-Unique,Edwards,Benton
906,65327,PO Box,Emma,Saline
907,65329,Non-Unique,Florence,Morgan
908,65330,Non-Unique,Gilliam,Saline
909,65332,Non-Unique,Green Ridge,Pettis
910,65333,Non-Unique,Houstonia,Pettis
911,65334,Non-Unique,Hughesville,Pettis
912,65335,Non-Unique,Ionia,Pettis
913,65336,Non-Unique,Knob Noster,Johnson
914,65337,Non-Unique,La Monte,Pettis
915,65338,Non-Unique,Lincoln,Benton
916,65339,Non-Unique,Malta Bend,Saline
917,65340,Non-Unique,Marshall,Saline
918,65344,Non-Unique,Miami,Saline
919,65345,Non-Unique,Mora,Benton
920,65347,Non-Unique,Nelson,Saline
921,65348,Non-Unique,Otterville,Cooper
922,65349,Non-Unique,Slater,Saline
923,65350,Non-Unique,Smithton,Pettis
924,65351,Non-Unique,Sweet Springs,Saline
925,65354,Non-Unique,Syracuse,Morgan
926,65355,Non-Unique,Warsaw,Benton
927,65360,Non-Unique,Windsor,Henry
928,65401,Non-Unique,Rolla,Phelps
929,65402,PO Box,Rolla,Phelps
930,65409,Non-Unique,Rolla,Phelps
931,65436,Non-Unique,Beulah,Phelps
932,65438,Non-Unique,Birch Tree,Shannon
933,65439,Non-Unique,Bixby,Iron
934,65440,Non-Unique,Boss,Dent
935,65441,Non-Unique,Bourbon,Crawford
936,65443,Non-Unique,Brinktown,Maries
937,65444,Non-Unique,Bucyrus,Texas
938,65446,Non-Unique,Cherryville,Crawford
939,65449,Non-Unique,Cook Station,Crawford
940,65452,Non-Unique,Crocker,Pulaski
941,65453,Non-Unique,Cuba,Crawford
942,65456,Non-Unique,Davisville,Crawford
943,65457,Non-Unique,Devils Elbow,Pulaski
944,65459,Non-Unique,Dixon,Pulaski
945,65461,Non-Unique,Duke,Phelps
946,65462,Non-Unique,Edgar Springs,Phelps
947,65463,Non-Unique,Eldridge,Laclede
948,65464,Non-Unique,Elk Creek,Texas
949,65466,Non-Unique,Eminence,Shannon
950,65468,Non-Unique,Eunice,Texas
951,65470,Non-Unique,Falcon,Laclede
952,65473,Non-Unique,Fort Leonard Wood,Pulaski
953,65479,Non-Unique,Hartshorn,Texas
954,65483,Non-Unique,Houston,Texas
955,65484,Non-Unique,Huggins,Texas
956,65486,Non-Unique,Iberia,Miller
957,65501,Non-Unique,Jadwin,Dent
958,65529,Non-Unique,Jerome,Phelps
959,65532,PO Box,Lake Spring,Dent
960,65534,Non-Unique,Laquey,Pulaski
961,65535,Non-Unique,Leasburg,Crawford
962,65536,Non-Unique,Lebanon,Laclede
963,65541,Non-Unique,Lenox,Dent
964,65542,Non-Unique,Licking,Texas
965,65543,Non-Unique,Lynchburg,Laclede
966,65546,PO Box,Montier,Shannon
967,65548,Non-Unique,Mountain View,Howell
968,65550,Non-Unique,Newburg,Phelps
969,65552,Non-Unique,Plato,Texas
970,65555,Non-Unique,Raymondville,Texas
971,65556,Non-Unique,Richland,Pulaski
972,65557,Non-Unique,Roby,Texas
973,65559,Non-Unique,Saint James,Phelps
974,65560,Non-Unique,Salem,Dent
975,65564,Non-Unique,Solo,Texas
976,65565,Non-Unique,Steelville,Crawford
977,65566,Non-Unique,Viburnum,Crawford
978,65567,Non-Unique,Stoutland,Camden
979,65570,Non-Unique,Success,Texas
980,65571,Non-Unique,Summersville,Texas
981,65580,Non-Unique,Vichy,Maries
982,65582,Non-Unique,Vienna,Maries
983,65583,Non-Unique,Waynesville,Pulaski
984,65584,Non-Unique,Saint Robert,Pulaski
985,65586,Non-Unique,Wesco,Crawford
986,65588,Non-Unique,Winona,Shannon
987,65589,Non-Unique,Yukon,Texas
988,65590,Non-Unique,Long Lane,Dallas
989,65591,Non-Unique,Montreal,Camden
990,65601,Non-Unique,Aldrich,Polk
991,65603,Non-Unique,Arcola,Dade
992,65604,Non-Unique,Ash Grove,Greene
993,65605,Non-Unique,Aurora,Barry
994,65606,Non-Unique,Alton,Oregon
995,65607,PO Box,Caplinger Mills,Cedar
996,65608,Non-Unique,Ava,Douglas
997,65609,Non-Unique,Bakersfield,Ozark
998,65610,Non-Unique,Billings,Christian
999,65611,Non-Unique,Blue Eye,Stone
1000,65612,Non-Unique,Bois D'Arc,Greene
1001,65613,Non-Unique,Bolivar,Polk
1002,65614,Non-Unique,Bradleyville,Taney
1003,65615,PO Box,Branson,Taney
1004,65616,Non-Unique,Branson,Taney
1005,65617,Non-Unique,Brighton,Polk
1006,65618,Non-Unique,Brixey,Ozark
1007,65619,Non-Unique,Brookline,Greene
1008,65620,Non-Unique,Bruner,Christian
1009,65622,Non-Unique,Buffalo,Dallas
1010,65623,Non-Unique,Butterfield,Barry
1011,65624,Non-Unique,Cape Fair,Stone
1012,65625,Non-Unique,Cassville,Barry
1013,65626,Non-Unique,Caulfield,Howell
1014,65627,Non-Unique,Cedarcreek,Taney
1015,65629,Non-Unique,Chadwick,Christian
1016,65630,Non-Unique,Chestnutridge,Christian
1017,65631,Non-Unique,Clever,Christian
1018,65632,Non-Unique,Conway,Laclede
1019,65633,Non-Unique,Crane,Stone
1020,65634,Non-Unique,Cross Timbers,Hickory
1021,65635,Non-Unique,Dadeville,Dade
1022,65636,PO Box,Diggins,Webster
1023,65637,Non-Unique,Dora,Ozark
1024,65638,Non-Unique,Drury,Douglas
1025,65640,Non-Unique,Dunnegan,Polk
1026,65641,Non-Unique,Eagle Rock,Barry
1027,65644,Non-Unique,Elkland,Webster
1028,65645,PO Box,Eudora,Polk
1029,65646,Non-Unique,Everton,Dade
1030,65647,Non-Unique,Exeter,Barry
1031,65648,Non-Unique,Fair Grove,Greene
1032,65649,Non-Unique,Fair Play,Cedar
1033,65650,Non-Unique,Flemington,Polk
1034,65652,Non-Unique,Fordland,Webster
1035,65653,Non-Unique,Forsyth,Taney
1036,65654,Non-Unique,Freistatt,Lawrence
1037,65655,Non-Unique,Gainesville,Ozark
1038,65656,Non-Unique,Galena,Stone
1039,65657,Non-Unique,Garrison,Christian
1040,65658,Non-Unique,Golden,Barry
1041,65660,Non-Unique,Graff,Wright
1042,65661,Non-Unique,Greenfield,Dade
1043,65662,Non-Unique,Grovespring,Wright
1044,65663,Non-Unique,Half Way,Polk
1045,65664,PO Box,Halltown,Lawrence
1046,65666,Non-Unique,Hardenville,Ozark
1047,65667,Non-Unique,Hartville,Wright
1048,65668,Non-Unique,Hermitage,Hickory
1049,65669,Non-Unique,Highlandville,Christian
1050,65672,Non-Unique,Hollister,Taney
1051,65673,PO Box,Hollister,Taney
1052,65674,Non-Unique,Humansville,Polk
1053,65675,Non-Unique,Hurley,Stone
1054,65676,Non-Unique,Isabella,Ozark
1055,65679,Non-Unique,Kirbyville,Taney
1056,65680,Non-Unique,Kissee Mills,Taney
1057,65681,Non-Unique,Lampe,Stone
1058,65682,Non-Unique,Lockwood,Dade
1059,65685,Non-Unique,Louisburg,Dallas
1060,65686,Non-Unique,Kimberling City,Stone
1061,65688,Non-Unique,Brandsville,Howell
1062,65689,Non-Unique,Cabool,Texas
1063,65690,Non-Unique,Couch,Oregon
1064,65692,Non-Unique,Koshkonong,Oregon
1065,65701,Non-Unique,McClurg,Taney
1066,65702,Non-Unique,Macomb,Wright
1067,65704,Non-Unique,Mansfield,Wright
1068,65705,Non-Unique,Marionville,Lawrence
1069,65706,Non-Unique,Marshfield,Webster
1070,65707,Non-Unique,Miller,Lawrence
1071,65708,Non-Unique,Monett,Barry
1072,65710,Non-Unique,Morrisville,Polk
1073,65711,Non-Unique,Mountain Grove,Wright
1074,65712,Non-Unique,Mount Vernon,Lawrence
1075,65713,Non-Unique,Niangua,Webster
1076,65714,Non-Unique,Nixa,Christian
1077,65715,Non-Unique,Noble,Ozark
1078,65717,Non-Unique,Norwood,Wright
1079,65720,Non-Unique,Oldfield,Christian
1080,65721,Non-Unique,Ozark,Christian
1081,65722,Non-Unique,Phillipsburg,Laclede
1082,65723,Non-Unique,Pierce City,Lawrence
1083,65724,Non-Unique,Pittsburg,Hickory
1084,65725,Non-Unique,Pleasant Hope,Polk
1085,65726,PO Box,Point Lookout,Taney
1086,65727,Non-Unique,Polk,Polk
1087,65728,Non-Unique,Ponce De Leon,Christian
1088,65729,Non-Unique,Pontiac,Ozark
1089,65730,Non-Unique,Powell,McDonald
1090,65731,Non-Unique,Powersite,Taney
1091,65732,Non-Unique,Preston,Hickory
1092,65733,Non-Unique,Protem,Taney
1093,65734,Non-Unique,Purdy,Barry
1094,65735,Non-Unique,Quincy,Hickory
1095,65737,Non-Unique,Reeds Spring,Stone
1096,65738,Non-Unique,Republic,Greene
1097,65739,Non-Unique,Ridgedale,Taney
1098,65740,Non-Unique,Rockaway Beach,Taney
1099,65741,PO Box,Rockbridge,Ozark
1100,65742,Non-Unique,Rogersville,Greene
1101,65744,Non-Unique,Rueter,Taney
1102,65745,Non-Unique,Seligman,Barry
1103,65746,Non-Unique,Seymour,Webster
1104,65747,Non-Unique,Shell Knob,Stone
1105,65752,Non-Unique,South Greenfield,Dade
1106,65753,Non-Unique,Sparta,Christian
1107,65754,Non-Unique,Spokane,Christian
1108,65755,Non-Unique,Squires,Douglas
1109,65756,Non-Unique,Stotts City,Lawrence
1110,65757,Non-Unique,Strafford,Greene
1111,65759,Non-Unique,Taneyville,Taney
1112,65760,Non-Unique,Tecumseh,Ozark
1113,65761,Non-Unique,Theodosia,Ozark
1114,65762,Non-Unique,Thornfield,Ozark
1115,65764,Non-Unique,Tunas,Dallas
1116,65765,PO Box,Turners,Greene
1117,65766,Non-Unique,Udall,Ozark
1118,65767,Non-Unique,Urbana,Dallas
1119,65768,Non-Unique,Vanzant,Douglas
1120,65769,Non-Unique,Verona,Barry
1121,65770,Non-Unique,Walnut Grove,Greene
1122,65771,Non-Unique,Walnut Shade,Taney
1123,65772,Non-Unique,Washburn,Barry
1124,65773,Non-Unique,Wasola,Ozark
1125,65774,Non-Unique,Weaubleau,Hickory
1126,65775,Non-Unique,West Plains,Howell
1127,65776,Non-Unique,South Fork,Howell
1128,65777,Non-Unique,Moody,Howell
1129,65778,Non-Unique,Myrtle,Oregon
1130,65779,Non-Unique,Wheatland,Hickory
1131,65781,Non-Unique,Willard,Greene
1132,65783,Non-Unique,Windyville,Dallas
1133,65784,Non-Unique,Zanoni,Ozark
1134,65785,Non-Unique,Stockton,Cedar
1135,65786,Non-Unique,Macks Creek,Camden
1136,65787,Non-Unique,Roach,Camden
1137,65788,Non-Unique,Peace Valley,Howell
1138,65789,Non-Unique,Pomona,Howell
1139,65790,Non-Unique,Pottersville,Howell
1140,65791,Non-Unique,Thayer,Oregon
1141,65793,Non-Unique,Willow Springs,Howell
1142,65801,PO Box,Springfield,Greene
1143,65802,Non-Unique,Springfield,Greene
1144,65803,Non-Unique,Springfield,Greene
1145,65804,Non-Unique,Springfield,Greene
1146,65805,PO Box,Springfield,Greene
1147,65806,Non-Unique,Springfield,Greene
1148,65807,Non-Unique,Springfield,Greene
1149,65808,PO Box,Springfield,Greene
1150,65809,Non-Unique,Springfield,Greene
1151,65810,Non-Unique,Springfield,Greene
1152,65814,PO Box,Springfield,Greene
1153,65817,PO Box,Springfield,Greene
1154,65890,Unique,Springfield,Greene
1155,65897,Unique,Springfield,Greene
1156,65898,Unique,Springfield,Greene
1157,65899,Unique,Springfield,Greene
